	shopname	address	phone	website	longitude	latitude
0	Tiago Espresso Bar + Kitchen	7080 Hollywood Blvd, Los Angeles, CA 90028	(323) 466-5600	http://www.tiagocoffee.com	-118.3444103	34.1010728
1	The Downbeat Cafe	1202 N Alvarado St, Los Angeles, CA 90026	(213) 483-3955	not found	-118.2628906	34.0782495
2	27th Street Bakery	2700 S Central Ave, Los Angeles, CA 90011	(323) 233-3469	not found	-118.2552256	34.01752
3	The Coffee Bean & Tea Leaf	700 World Way, Los Angeles, CA 90045	(310) 646-5252	http://coffeebean.com	-118.4013612	33.9430214
4	Dragon Espresso Bar	240 N Virgil Ave, Los Angeles, CA 90004	(323) 944-2133	not found	-118.2865268	34.075958
5	Cr Entertainment	1125 Crenshaw Blvd, Los Angeles, CA 90019	(323) 954-6499	not found	-118.324632	34.0524006
6	Gyocha Cafe	1277 N Wilton Pl, Los Angeles, CA 90038	(323) 466-4157	not found	-118.3137286	34.0945059
7	Em&#39s Artist Cafe	2926 La Cienega Blvd, Culver City, CA 90232	(323) 931-4564	not found	-118.3734163	34.0320746
8	Euro Cafe	707 Wilshire Blvd, Los Angeles, CA 90017	(213) 688-4960	not found	-118.2569947	34.0492347
9	Maxwell Cafe	13329 W Washington Blvd, Los Angeles, CA 90066	(310) 306-7829	http://maxwellcafe.nl	-118.4431257	33.9928423
10	Starbucks Coffee	5857 S Central Ave, Los Angeles, CA 90001	(323) 521-1535	http://www.starbucks.com	-118.2574753	33.9880813
11	Cafe Alibi	84 S Fair Oaks Ave, Pasadena, CA 91105	(626) 577-5779	not found	-118.1502415	34.1441716
12	Joom Bangkok Cafe	7825 Beverly Blvd, Los Angeles, CA 90036	(323) 938-9650	http://www.joombangkok.com	-118.360796	34.0763797
13	Eurotal	500 World Way, Los Angeles, CA 90045	(310) 645-2121	not found	-118.40456	33.9413157
14	Winchell&#39s Donuts	2100 Beverly Blvd, Los Angeles, CA 90057	(213) 483-6605	http://www.winchells.com	-118.2707471	34.0663982
15	Eureka Cafe	4053 W Washington Blvd, Los Angeles, CA 90018	(323) 732-8600	not found	-118.327301	34.040163
16	Short Cake	6333 W 3rd St # 316, Los Angeles, CA 90036	(323) 761-7976	not found	-118.3605725	34.0717892
17	Vaughn, James	7095 Hollywood Blvd # 714, Los Angeles, CA 90028	(323) 436-2800	not found	-118.3450281	34.1018904
18	Tom N Toms	621 S Western Ave, Suite 101, Los Angeles, CA 90005	(213) 381-7271	http://en.tomntoms.com	-118.3094718	34.0627014
19	Nature Leaf Cafe	113 E 9th St, Los Angeles, CA 90015	(213) 627-3535	not found	-118.254529	34.0413199
20	Java Twist	3540 Wilshire Blvd, Los Angeles, CA 90010	(213) 383-3999	http://www.javatwistla.com	-118.3016824	34.0610127
21	Ramma Geni Cafe	8500 Melrose Ave Ste 106, West Hollywood, CA 90069	(310) 855-1777	not found	-118.3768899	34.0816999
22	Hard Rock Hollywood	6801 Hollywood Blvd, Los Angeles, CA 90028	(323) 960-9283	not found	-118.3399805	34.1026077
23	Roaster Family Coffee	521 W Main St, Alhambra, CA 91801	(626) 282-8879	not found	-118.1327324	34.0926603
24	Starbucks Coffee	164 N Robertson Blvd, West Hollywood, CA 90048	(310) 659-7370	http://www.starbucks.com	-118.3834986	34.0769832
25	Begins Cafe Catering & Food Service	100 S Main St, Los Angeles, CA 90012	(213) 620-9565	http://www.beginscafe.com	-118.2435949	34.0511451
26	Helio Cafe	710 N Heliotrope Dr, Los Angeles, CA 90029	(323) 662-2302	not found	-118.2946972	34.0839914
27	Starbucks Coffee	311 W Los Feliz Rd, Glendale, CA 91204	(818) 246-7161	http://www.starbucks.com	-118.2586048	34.1294715
28	Universal Coffee	3460 E Olympic Blvd, Los Angeles, CA 90023	(323) 268-1579	not found	-118.2030155	34.0185983
29	Mocha Kiss Coffee	920 N Formosa Ave, Los Angeles, CA 90046	(323) 512-9800	http://mochakiss.com	-118.345848	34.087857
30	Omni Herb	3250 W Olympic Blvd Suite305, Los Angeles, CA 90006	(323) 766-7798	not found	-118.3085165	34.0522327
31	Starbucks Coffee	8480 Beverly Blvd, Los Angeles, CA 90048	(323) 602-0637	http://www.starbucks.com	-118.37559	34.07523
32	Specialty&#39s	2121 Avenue Of The Stars, Los Angeles, CA 90067	(877) 502-2837	http://www.specialtys.com	-118.4132642	34.0552232
33	seasons cafe	1234 Wilshire Blvd #440, Los Angeles, CA 90017	(323) 919-9359	http://seasonscafekt.wix.com/cafe	-118.2659832	34.0531293
34	Starbucks Coffee	505 S Flower St, Los Angeles, CA 90071	(213) 622-4493	http://www.starbucks.com	-118.2566062	34.0514473
35	Viztango Cafe	3017 S Figueroa St, Los Angeles, CA 90007	(213) 745-8050	not found	-118.2786331	34.0248567
36	Dong Lai Shun	501 W Garvey Ave, Monterey Park, CA 91754	(626) 576-8028	not found	-118.129612	34.062744
37	First Cup Caffe	333 S Spring St, Los Angeles, CA 90013	(213) 687-6603	not found	-118.2479591	34.0497243
38	Red Dragon	860 N Vermont Ave, Los Angeles, CA 90029	(213) 453-2411	http://reddragoncafe.com	-118.2914569	34.0870587
39	Jones Coffee Roasters	693 S Raymond Ave, Pasadena, CA 91105	(626) 564-9291	not found	-118.1492671	34.1337886
40	Taistee Coffee Shop	6200 Wilshire Blvd, Los Angeles, CA 90048	(323) 935-9566	not found	-118.3635999	34.0629729
41	Beachwood Cafe	2695 N Beachwood Dr, Los Angeles, CA 90068	(323) 871-1717	http://beachwoodcafe.com	-118.3213137	34.1198901
42	Winchell&#39s Donuts	2501 S San Pedro St, Los Angeles, CA 90011	(213) 745-9038	http://www.winchells.com	-118.2609609	34.0225196
43	Le Cafe Bonjour	640 S Hill St, Los Angeles, CA 90014	(213) 670-0100	http://www.lecafebonjour.com	-118.253515	34.0464163
44	Panini Cafe	8054 W 3rd St, Los Angeles, CA 90048	(323) 951-1900	http://mypaninicafe.com	-118.3656739	34.0719585
45	Blu Jam Cafe	7371 Melrose Ave, Los Angeles, CA 90046	(323) 951-9191	http://www.blujamcafe.com	-118.3505539	34.0837459
46	Basix Cafe	8333 Santa Monica Blvd, West Hollywood, CA 90069	(323) 848-2460	http://www.basixcafe.com	-118.371375	34.0909326
47	Barako Coffee Bean	4716 Fountain Ave, Los Angeles, CA 90029	(323) 665-7378	not found	-118.2921006	34.0955388
48	Euro Caffe	8833 W Sunset Blvd, West Hollywood, CA 90069	(310) 289-5900	http://www.eurocaffebh.com	-118.3841728	34.0909191
49	Healthy Bean	8470 Santa Monica Blvd, West Hollywood, CA 90069	(323) 848-9401	http://www.thehealthybean.com	-118.3756666	34.0895613
50	Kitchen 24	1608 N Cahuenga Blvd, Los Angeles, CA 90028	(323) 465-2424	not found	-118.3292464	34.1001191
51	Verve Cafe	8925 Melrose Ave, West Hollywood, CA 90069	(310) 385-9605	not found	-118.3875758	34.0809374
52	Winchell&#39s Donuts	8567 S Broadway, Los Angeles, CA 90003	(323) 758-2372	http://www.winchells.com	-118.278281	33.96005
53	Caffe Bene	3287 Wilshire Blvd, Los Angeles, CA 90010	(213) 384-3723	http://www.caffebene.com	-118.2939282	34.062045
54	Cacao Coffee House	11609 Santa Monica Blvd, Los Angeles, CA 90025	(310) 473-7283	http://cacaocoffeehouse.com	-118.4542998	34.0445427
55	Feed All Cafe	8687 Melrose Ave, West Hollywood, CA 90069	(310) 360-0779	not found	-118.3823838	34.082157
56	Starbucks Coffee	3118 S Sepulveda Blvd, Los Angeles, CA 90034	(310) 477-8717	http://www.starbucks.com	-118.4269654	34.0265812
57	Alfred Coffee	11908 San Vicente Blvd, Los Angeles, CA 90049	(310) 826-4627	http://alfredcoffee.com	-118.4706548	34.0525122
58	Creme Cafe	251 N Vermont Ave, Los Angeles, CA 90004	(213) 738-5002	not found	-118.2919366	34.0760055
59	Yum-Yum Donuts	700 Vine St, Los Angeles, CA 90038	(323) 467-6773	http://www.yumyumdonuts.com	-118.3264301	34.0836735
60	The Coffee Bean & Tea Leaf	3470 S Sepulveda Blvd, Los Angeles, CA 90034	(310) 313-0259	http://coffeebean.com	-118.4220827	34.0196675
61	Crossroads West Cafe	4700 Western Heritage Way, Los Angeles, CA 90027	(323) 495-4334	not found	-118.281466	34.1487062
62	Starbucks Coffee	6290 Hollywood Blvd, Los Angeles, CA 90028	(323) 464-4601	http://www.starbucks.com	-118.326396	34.1014448
63	Goal Sports Cafe	8334 W 3rd St, Los Angeles, CA 90048	(323) 655-5955	http://www.goalsportscafe.com	-118.3712508	34.0726398
64	Cafe Expresso	3460 Wilshire Blvd, Los Angeles, CA 90010	(213) 738-9833	not found	-118.3000389	34.0613055
65	Anatolia Mediterrean Cafe	1942 Westwood Blvd, Los Angeles, CA 90025	(310) 446-0055	not found	-118.4346712	34.0476396
66	Dinette	1608 1/2 W Sunset Blvd, Los Angeles, CA 90026	(213) 278-0301	not found	-118.257737	34.0769138
67	Buzz Coffee	7623 Beverly Blvd, Los Angeles, CA 90036	(323) 634-7393	not found	-118.3561429	34.076356
68	Textile Coffee Shop	840 Santee St, Los Angeles, CA 90014	(213) 265-7262	not found	-118.25242	34.04046
69	Cafe Scent	3680 Wilshire Blvd, Los Angeles, CA 90010	(213) 383-9440	http://www.cafescent.net	-118.3060539	34.0614637
70	Tanner&#39s Coffee Company	11901 Santa Monica Blvd, Los Angeles, CA 90025	(310) 479-4533	not found	-118.4609639	34.0421011
71	Mamas Secret Bakery	8314 W 3rd St, Los Angeles, CA 90048	(323) 424-3482	http://www.mamassecretbakery.com	-118.370635	34.07247
72	Starbucks Coffee	3880 N Mission Rd, Los Angeles, CA 90031	(213) 741-8899	http://www.starbucks.com	-118.1974989	34.0715193
73	L&#39angolo Cafe	101 W 9th St, Los Angeles, CA 90015	(213) 622-2262	http://www.langolo-cafe.com	-118.2550664	34.0418639
74	Peet&#39s Coffee & Tea	2520 Glendale Blvd Ralph&#39s #0732 Grocery, Los Angeles, CA 90039	(323) 666-5392	http://www.peets.com	-118.2585096	34.1103407
75	Cafe Aroma	7801 Melrose Ave Ste 2, Los Angeles, CA 90046	(323) 653-2459	http://www.aromabakery.com	-118.3596229	34.084005
76	Starbucks Coffee	138 S Central Ave, Los Angeles, CA 90012	(213) 613-0393	http://www.starbucks.com	-118.2389837	34.048026
77	Le Pain Quotidien	1055 Broxton Ave, Los Angeles, CA 90024	(310) 824-7900	http://www.lepainquotidien.us	-118.4465765	34.0614156
78	Caffe Luxxe	11975 San Vicente Blvd, Los Angeles, CA 90049	(310) 394-2222	http://www.caffeluxxe.com	-118.4718797	34.0526081
79	Starbucks Coffee	120 S Los Angeles St, Los Angeles, CA 90012	(213) 687-9849	http://www.starbucks.com	-118.2426489	34.0505282
80	Peet&#39s Coffee & Tea	2120 W Main St Target #0184 Grocery, Alhambra, CA 91801	(626) 308-3290	http://www.peets.com	-118.1181199	34.0837958
81	Starbucks Coffee	859 N Highland Ave, Los Angeles, CA 90038	(323) 493-1868	http://www.starbucks.com	-118.3389206	34.0868712
82	Best Bakery And Cafe	1235 S Central Ave, Glendale, CA 91204	(818) 244-4433	http://bestbakerycafe.com	-118.2581358	34.1309072
83	Peet&#39s Coffee & Tea	4550 W Pico Blvd, Los Angeles, CA 90019	(323) 549-9586	http://www.peets.com	-118.3358682	34.0484527
84	Shreebs Coffee	3715 Corinth Ave, Los Angeles, CA 90066	(424) 260-5880	http://www.shreebscoffee.com	-118.4219503	34.0121707
85	The Hollywood Corner	1156 N Highland Ave, Los Angeles, CA 90038	(323) 463-2220	http://www.callthecorner.com	-118.3383023	34.0924183
86	Prism Coffee	1032 Crenshaw Blvd # E, Los Angeles, CA 90019	(213) 215-8336	not found	-118.3231592	34.0537072
87	Bibis Bakery and Cafe	8928 W Pico Blvd, Los Angeles, CA 90035	(310) 246-1788	http://www.bibisbakerycafe.com	-118.3867056	34.0550906
88	Seven Star Coffee	421 W 7th St, Los Angeles, CA 90014	(213) 683-9640	not found	-118.2548581	34.0463368
89	85C Bakery Cafe	61 S Fair Oaks Ave, Pasadena, CA 91105	(626) 792-8585	http://85cafe.us	-118.1508953	34.1446956
90	Verve Coffee Roasters	833 S. Spring St., Los Angeles, CA 90014	(213) 455-5991	http://www.vervecoffeeroasters.com	-118.254686	34.042511
91	Swork Coffee	2160 Colorado Blvd, Los Angeles, CA 90041	(323) 258-5600	http://www.swork.com	-118.2139044	34.1388487
92	The Coffee Company	8751 La Tijera Blvd, Los Angeles, CA 90045	(310) 645-7315	http://www.laxcoffeeco.com	-118.394536	33.957594
93	Cafe Primo	3255 Wilshire Blvd, Los Angeles, CA 90010	(213) 383-8410	http://www.iloveprimo.com	-118.293217	34.0622634
94	Winchell&#39s Donuts	1213 S Soto St, Los Angeles, CA 90023	(323) 780-4331	http://www.winchells.com	-118.2197651	34.0278364
95	Coffee Mocha	110 E 9th St, Los Angeles, CA 90079	(213) 628-3835	not found	-118.2553945	34.0404559
96	Ice Kiss	3407 W 6th St Ste 101B, Los Angeles, CA 90020	(213) 382-4776	not found	-118.295725	34.0639346
97	Rosslyn Market & Cafe	121 W 5th St, Los Angeles, CA 90013	(213) 239-0433	http://www.rosslynmarket.com	-118.2488254	34.047086
98	Di Bello Cafe	936 N Formosa Ave, Los Angeles, CA 90046	(323) 436-2900	not found	-118.3458647	34.088257
99	Peet&#39s Coffee & Tea	7100 Santa Monica Blvd Su Target #1884 Grocery, West Hollywood, CA 90046	(323) 603-0004	http://www.peets.com	-118.3617443	34.0900091
100	Cafe Emet	558 S Broadway, Los Angeles, CA 90013	(213) 688-8885	not found	-118.25163	34.046622
101	BreadBar	10250 Santa Monica Blvd, Los Angeles, CA 90067	(310) 277-3770	http://www.breadbar.net	-118.4194176	34.0596101
102	Peet&#39s Coffee & Tea	8448 Lincoln Blvd Bristol Farms Westchester Grocery, Los Angeles, CA 90045	(310) 410-0593	http://www.peets.com	-118.3875775	33.9516114
103	H Coffee House	1750 Hillhurst Ave, Los Angeles, CA 90027	(323) 660-9930	not found	-118.2871914	34.102885
104	Crepes Plus Kitchen	5223 Wilshire Blvd, Los Angeles, CA 90036	(323) 933-3403	http://crepepluskitchen.com	-118.3435951	34.0624677
105	Coral Tree Cafe	11645 San Vicente Blvd, Los Angeles, CA 90049	(310) 979-8733	http://www.coraltreecafe.com	-118.4637879	34.0542189
106	Milk and Honey	10990 Wilshire Blvd, Los Angeles, CA 90024	(310) 479-2670	http://www.milkhoneyla.com	-118.4471294	34.0574975
107	Groundwork Coffee Co	1501 N Cahuenga Blvd, Los Angeles, CA 90028	(323) 871-0143	http://groundworkcoffee.com	-118.3297713	34.0981674
108	Tom N Toms	3785 Wilshire Blvd, Los Angeles, CA 90010	(213) 389-1878	http://www.tomntoms.com	-118.3087102	34.0626101
109	Fashion Cafe	501 W Olympic Blvd # 105, Los Angeles CA, 90015, Los Angeles, CA 90015	(213) 623-5626	not found	-118.2609439	34.0434707
110	Peet&#39s Coffee & Tea	2207 W Commonwealth Ave Costco Warehouse 428 - Alhambra Grocery, Alhambra, CA 91803	(626) 289-7164	http://www.peets.com	-118.1415261	34.0779881
111	DRNK Coffee & Tea	6848 W Sunset Blvd, Los Angeles, CA 90028	(323) 469-8825	http://www.drnkcoffee.com/home	-118.3402768	34.0978056
112	29th Street Cafe	2827 S Hoover St, Los Angeles, CA 90007	(213) 746-2929	http://www.thetwonine.com	-118.284365	34.028543
113	Starbucks Coffee	919 S Central Ave # F, Glendale, CA 91204	(818) 545-4122	http://www.starbucks.com	-118.2581525	34.135058
114	Kellys Coffee & Fudge Factory	6361 Wilshire Blvd, Los Angeles, CA 90048	(323) 782-8120	not found	-118.3673048	34.0638207
115	Jubu USA Inc	3300 Garfield Ave, Commerce, CA 90040	(323) 728-7210	not found	-118.1394056	33.9855384
116	International Coffee & Tea Inc	5700 Wilshire Blvd, Los Angeles, CA 90036	(323) 456-0120	not found	-118.3535426	34.0617449
117	Hwa Sun Ji Tea & Coffee	3960 Wilshire Blvd Ste 100, Los Angeles, CA 90010	(213) 382-5302	not found	-118.3132121	34.0612803
118	Cafe 50&#39s	11623 Santa Monica Blvd, Los Angeles, CA 90025	(310) 479-1955	http://www.cafe50s.com	-118.4548464	34.0445658
119	Pr Pasadena	100 W Green St, Pasadena, CA 91105	(626) 440-0009	http://www.pasadenaoptometrycenter.com	-118.1522232	34.1444874
120	Starbucks Coffee	5151 State University Dr, Los Angeles, CA 90032	(323) 343-5370	http://www.starbucks.com	-118.1736142	34.0621924
121	Mago	3435 Wilshire Blvd # 1030, Los Angeles, CA 90010	(213) 632-4007	not found	-118.2985086	34.0622581
122	Starbucks Coffee	12100 Santa Monica Blvd, Los Angeles, CA 90025	(310) 571-9262	http://www.starbucks.com	-118.4633251	34.0402837
123	Peet&#39s Coffee & Tea	245 E Green St Gelson&#39s #20 Grocery, Pasadena, CA 91101	(626) 535-0190	http://www.peets.com	-118.1386005	34.1427587
124	The Melting Pot Cafe	1035 E Green St, Pasadena, CA 91106	(626) 796-6454	http://www.meltingpot.com	-118.1288242	34.144926
125	Starbucks Coffee	8363 W Sunset Blvd, Los Angeles, CA 90069	(323) 848-8663	http://www.starbucks.com	-118.372139	34.09575
126	Starbucks Coffee	6333 W 3rd St, Los Angeles, CA 90036	(323) 965-9594	http://www.starbucks.com	-118.3605725	34.0717892
127	Peet&#39s Coffee & Tea	3607 W Sunset Blvd Yummy Foods #4 Grocery, Los Angeles, CA 90026	(310) 876-1600	http://www.peets.com	-118.2585096	34.0796167
128	Antigua Coffee House	3400 N Figueroa St, Los Angeles, CA 90065	(323) 539-2233	http://www.antiguacoffeehouse.com	-118.2174816	34.0873672
129	Starbucks Coffee	8500 Beverly Blvd, Los Angeles, CA 90048	(310) 358-0161	http://www.starbucks.com	-118.3774933	34.0753309
130	Locali	5825 Franklin Ave, Los Angeles, CA 90028	(323) 466-1360	http://www.localiyours.com	-118.316553	34.105551
131	Ground Floor Cafe	433 S Spring St Ste 100, Los Angeles, CA 90013	(213) 624-3010	not found	-118.249225	34.048347
132	Coffee Project Paramount	456 N Fairfax Ave, Los Angeles, CA 90036	(323) 746-5480	not found	-118.3612251	34.0797855
133	Daddyo&#39s Coffee	3458 1/2 Wilshire Blvd, Los Angeles, CA 90010	(213) 382-2142	http://daddyoscoffee.com	-118.29973	34.0613621
134	Robertsen	464 N Robertson Blvd, West Hollywood, CA 90048	(310) 967-0161	not found	-118.3846095	34.0798226
135	Four Leaf Tea Room	318 E 2nd St, Los Angeles, CA 90012	(213) 621-2559	http://www.teabarfourleaf.com	-118.2413578	34.0487226
136	Seattle&#39s Best Coffee	475 S Lake Ave, Pasadena, CA 91101	(626) 304-9773	http://www.seattlesbest.com	-118.132687	34.13755
137	Espresso Profeta	1129 Glendon Ave, Los Angeles, CA 90024	(310) 208-3375	http://www.espressoprofeta.com	-118.4442262	34.0602743
138	Coffee Time	851 1/2 S Western Ave, Los Angeles, CA 90005	(213) 487-7333	not found	-118.3092352	34.0613997
139	Cafe Papparich	3948 Wilshire Blvd, Los Angeles, CA 90010	(213) 383-4100	not found	-118.3129524	34.0615364
140	Peet&#39s Coffee & Tea	800 W 1st St, Los Angeles, CA 90012	(213) 624-1245	http://www.peets.com	-118.2518556	34.056158
141	Plaza Cafe	5777 W Century Blvd Ste 104, Los Angeles, CA 90045	(310) 645-7922	http://www.plazacafe.us	-118.382847	33.9471358
142	The Coffee Bean & Tea Leaf	4034 Crenshaw Blvd, Los Angeles, CA 90008	(323) 291-4133	http://coffeebean.com	-118.3345634	34.011293
143	Cafe Appi Restaurant	661 S Harvard Blvd, Los Angeles, CA 90005	(213) 389-3448	not found	-118.304214	34.06131
144	Beard Papa Sweet Cafe	6801 Hollywood Blvd Ste 157, Los Angeles, CA 90028	(323) 462-6100	http://www.beardpapa.com	-118.3399805	34.1026077
145	Starbucks Coffee	2218 Colorado Blvd, Los Angeles, CA 90041	(323) 349-0671	http://www.starbucks.com	-118.2152027	34.1391061
146	Genesis Jesus	119 E 7th St, Los Angeles, CA 90014	(213) 265-7628	not found	-118.2507917	34.0435498
147	Peet&#39s Coffee & Tea	1854 Westwood Blvd Retail, Los Angeles, CA 90025	(310) 954-8558	http://www.peets.com	-118.4484367	34.0448583
148	Sabor Y Cultura	5625 Hollywood Blvd, Los Angeles, CA 90028	(323) 466-0481	http://saborycultura.com	-118.3124206	34.101867
149	Panini Cafe Downtown	600 W 9th St, Los Angeles, CA 90015	(213) 489-4200	http://www.mypaninicafe.com	-118.2611465	34.0451919
150	Cups Coffee	3335 S Figueroa St # E, Los Angeles, CA 90007	(213) 700-2903	not found	-118.2798382	34.0227992
151	Home Restaurant	2500 Riverside Dr, Los Angeles, CA 90039	(323) 665-0211	http://www.homerestaurantla.com	-118.2569556	34.1060891
152	Citrus On Sunset	9000 W Sunset Blvd, West Hollywood, CA 90069	(310) 858-3700	http://www.citrusonsunset.com	-118.3878421	34.090252
153	Urth Caffe	451 S Hewitt St, Los Angeles, CA 90013	(213) 797-4534	not found	-118.235426	34.041974
154	Yum-Yum Donuts	10833 National Blvd, Los Angeles, CA 90064	(310) 474-9010	http://www.yumyumdonuts.com	-118.4213749	34.03081
155	Starbucks Coffee	300 E 9th St, Los Angeles, CA 90015	(213) 489-0913	http://www.starbucks.com	-118.2534367	34.0398042
156	Cafe Bakery Ggi	2200 W Temple St, Los Angeles, CA 90026	(213) 483-6152	http://www.gigisbakeryla.com	-118.2695756	34.0704765
157	Coffee A La Mode	100 W Green St, Pasadena, CA 91105	(626) 219-6750	not found	-118.1522232	34.1444874
158	Tapioca Express	928 S Western Ave, Los Angeles, CA 90006	(213) 738-5954	http://www.tapiocaexpress.com	-118.3084223	34.0552101
159	Paris Baguette	125 N Western Ave, Los Angeles, CA 90004	(323) 467-0404	http://www.parisbaguetteusa.com	-118.309153	34.073801
160	Starbucks Coffee	1111 S Grand Ave, Los Angeles, CA 90015	(213) 749-1751	http://www.starbucks.com	-118.2625202	34.0414658
161	I Love Boba	1001 S Vermont Ave, Los Angeles, CA 90006	(213) 388-1434	not found	-118.2916434	34.0525182
162	Peet&#39s Coffee & Tea	2121 Avenue Of The Stars Ste 100, Los Angeles, CA 90067	(877) 502-2837	http://www.peets.com	-118.4132642	34.0552232
163	Tierra Mia Coffee	6706 Pacific Blvd, Huntington Park, CA 90255	(323) 589-2065	http://www.tierramiacoffee.com	-118.2249218	33.9785049
164	Peet&#39s Coffee & Tea	605 S Lake Ave, Pasadena, CA 91106	(626) 795-7413	http://www.peets.com	-118.1325426	34.1354463
165	Winchell&#39s Donuts	5301 W Sunset Blvd Ste 11, Los Angeles, CA 90027	(323) 466-2268	http://www.winchells.com	-118.305987	34.098455
166	Tom N Toms Vermont Galleria	440 S Vermont Ave, Los Angeles, CA 90020	(213) 738-9134	http://tomntoms.com	-118.2916323	34.0665764
167	Lamill Coffee Inc	112 Westmont Dr, Alhambra, CA 91801	(626) 202-0323	http://lamillcoffee.com	-118.1594016	34.0920996
168	Peet&#39s Coffee & Tea	7871 Santa Monica Blvd Whole Foods; West Hollywood Grocery, West Hollywood, CA 90046	(310) 848-4200	http://www.peets.com	-118.3617443	34.0900091
169	Ozero Tea & Desserts	131 S Central Ave, Los Angeles, CA 90012	(213) 626-8889	http://www.twinklebrownsugarlt.com	-118.2395445	34.048289
170	Cafe Dahab	1638 -1640 Sawtelle Blvd, Los Angeles, CA 90025	(310) 444-0969	http://www.cafedahab.com	-118.4479658	34.046197
171	Iris Cafe	150 N Robertson Blvd, Beverly Hills, CA 90211	(310) 657-0900	http://iriscapitalgroup.com	-118.3834054	34.068452
172	Mill N Mick Cafe	4862 Eagle Rock Blvd, Los Angeles, CA 90041	(323) 255-6455	not found	-118.2154341	34.1342092
173	Cafe Theater	419 W 7th St, Los Angeles, CA 90014	(213) 362-3333	not found	-118.2547267	34.0463879
174	Starbucks Coffee	217 N Hill St, Los Angeles, CA 90012	(213) 625-2205	http://www.starbucks.com	-118.2454138	34.0562101
175	Starbucks Coffee	1437 E Gage Ave, Los Angeles, CA 90001	(323) 585-1928	http://www.starbucks.com	-118.2489098	33.9824585
176	Peet&#39s Coffee & Tea	845 E California Blvd Pavilions #2224 Grocery, Pasadena, CA 91106	(626) 795-7413	http://www.peets.com	-118.1268976	34.1456654
177	Santa Monica Kitchen Cafe	12330 Santa Monica Blvd, Los Angeles, CA 90025	(310) 207-8888	not found	-118.4659423	34.0391524
178	Headlines Diner & Press Club	10922 Kinross Ave, Los Angeles, CA 90024	(310) 208-2424	not found	-118.4461515	34.0602402
179	Primera Taza Coffee House	1850 1/2 E 1st St, Los Angeles, CA 90033	(323) 780-3923	http://www.primerataza.com	-118.2181932	34.0466247
180	Massetti Caffe Mobile	225 S Lake Ave, Pasadena, CA 91101	(626) 319-4550	http://www.massettiespresso.com	-118.1335076	34.1419392
181	Starbucks Coffee	4177 W Washington Blvd, Los Angeles, CA 90018	(323) 734-0281	http://www.starbucks.com	-118.3304638	34.0402293
182	Coffee Tomo	11309 Mississippi Ave, Los Angeles, CA 90025	(310) 444-9390	http://www.coffeetomo.com	-118.4428739	34.0395287
183	Namsan	3613 W 6th St, Los Angeles, CA 90020	(213) 382-7777	not found	-118.3009097	34.0638063
184	Starbucks Coffee	3722 Crenshaw Blvd, Los Angeles, CA 90016	(323) 292-7911	http://www.starbucks.com	-118.3346456	34.019176
185	A Coffee Shop	5357 Santa Monica Blvd, Los Angeles, CA 90029	(323) 464-4500	http://cacaocoffeehouse.com	-118.305371	34.0907992
186	Four Cafe	2122 Colorado Blvd, Los Angeles, CA 90041	(323) 550-1988	http://www.fourcafe.net	-118.2128206	34.138876
187	Amoon Ra Restaurant & Cafe	980 N La Cienega Blvd Ste 100, West Hollywood, CA 90069	(310) 854-7777	not found	-118.375984	34.0890739
188	Cafe Noa	816 S Grand Ave, Los Angeles, CA 90017	(213) 612-0345	http://www.yelp.com/biz_photos/lPJT6FGGozk8ViagtwIL5Q?select=IeNyutz9QSp44lQg8o3_Og#e-Efa17tiUdzT7m39tahWwhttp:	-118.2580629	34.0452437
189	Post Coffee Shop	216 W 9th St, Los Angeles, CA 90015	(213) 622-7686	not found	-118.256394	34.042475
190	Roxy&#39s Cafe	8601 Lincoln Blvd, Los Angeles, CA 90045	(424) 750-9298	http://www.roxystreasures.com	-118.4199801	33.9590609
191	Peet&#39s Coffee & Tea	1751 Westwood Blvd Sprout&#39s #275 Grocery, Los Angeles, CA 90024	(310) 500-1192	http://www.peets.com	-118.4367551	34.0631451
192	Caffe Italiano	7 S 2nd St, Alhambra, CA 91801	(626) 570-8262	not found	-118.1287808	34.0939282
193	Cafe Americano	4003 Wilshire Blvd, Los Angeles, CA 90010	(213) 427-3637	not found	-118.3146338	34.0621194
194	Grindhouse Coffee	1051 Havenhurst Dr, West Hollywood, CA 90046	(323) 650-7717	not found	-118.3671358	34.0904244
195	J&#39s Cafe	700 S Western Ave # 102, Los Angeles, CA 90005	(213) 380-3003	not found	-118.3085425	34.0594652
196	Blackberry Pond Tea Co.	1572 Cardiff Ave, Los Angeles, CA 90035	(310) 286-0968	http://www.organic-teas.com	-118.3918991	34.0503031
197	Two Guns Espresso	601 S Figueroa St, Los Angeles, CA 90017	(213) 628-3445	not found	-118.2593009	34.0508366
198	House Of Sweets	317 S Broadway, Los Angeles, CA 90013	(213) 687-7367	not found	-118.2487951	34.050655
199	Andante Coffee Shop	7623 Beverly Blvd, Los Angeles, CA 90036	(323) 525-0355	not found	-118.3561429	34.076356
200	Starbucks Coffee	3111 Glendale Blvd, Los Angeles, CA 90039	(323) 667-1457	http://www.starbucks.com	-118.2629788	34.1163741
201	Garden Cafe	707 Wilshire Blvd, Los Angeles, CA 90017	(213) 627-3727	not found	-118.2569947	34.0492347
202	The Coffee Bean & Tea Leaf	11600 Wilshire Blvd, Los Angeles, CA 90025	(310) 477-7020	http://coffeebean.com	-118.4592884	34.0503619
203	The Good Karma Cafe	817 W 34th St, Los Angeles, CA 90089	(213) 740-6110	not found	-118.2842049	34.0232077
204	Cafe Latte	3130 W Olympic Blvd Ste 100, Los Angeles, CA 90006	(323) 734-4606	not found	-118.303845	34.052396
205	Sunshine Cafe	2500 Wilshire Blvd # 106, Los Angeles, CA 90057	(213) 252-5226	not found	-118.2811887	34.0600418
206	Starbucks Coffee - Health Science Campus - USC	1969 Zonal Ave, Los Angeles, CA 90033	(323) 442-1943	http://www.starbucks.com	-118.2064326	34.0602225
207	Pasquini Espresso Co	1501 W Olympic Blvd, Los Angeles, CA 90015	(714) 557-8099	http://www.pasquini.com	-118.272545	34.048696
208	Winchell&#39s Donuts	2601 Colorado Blvd, Los Angeles, CA 90041	(323) 257-5831	http://www.winchells.com	-118.2230095	34.1424531
209	Blue Bottle Coffee	8301 Beverly Blvd, Los Angeles, CA 90048	(213) 621-4194	https://bluebottlecoffee.com	-118.370221	34.0762809
210	Roberto&#39s Cafe	3112 N Broadway, Los Angeles, CA 90031	(323) 222-0800	not found	-118.2085853	34.073289
211	Pa2gh Grill	11033 Santa Monica Blvd, Los Angeles, CA 90025	(310) 444-0088	http://www.pa2ghgrill.com	-118.4428247	34.0485438
212	Starbucks Coffee	3450 Wilshire Blvd, Los Angeles, CA 90010	(213) 382-3351	http://www.starbucks.com	-118.2995192	34.0613002
213	Ground Coffee	4658 Melrose Ave, Los Angeles, CA 90029	(323) 669-7387	not found	-118.3021343	34.0832283
214	Caffe Bene	607 S Western Ave, Los Angeles, CA 90005	(213) 251-1022	http://www.caffebene.com	-118.3093443	34.0631213
215	Starbucks Coffee	10955 Weyburn Ave, Los Angeles, CA 90024	(310) 209-1626	http://www.starbucks.com	-118.4474496	34.0624777
216	Volcano Tea House	2111 Sawtelle Blvd, Los Angeles, CA 90025	(310) 445-5326	http://www.volcanoteahouse.com	-118.4425935	34.039138
217	Vine Street Deli	1241 Vine St, Los Angeles, CA 90038	(323) 464-3364	http://thevinestreetdelicafe.com	-118.3272796	34.0936742
218	Sexy Beans	6434 Hollywood Blvd, Los Angeles, CA 90028	(323) 462-9100	not found	-118.3307661	34.1014695
219	Winchell&#39s Donuts	1404 W Imperial Hwy, Los Angeles, CA 90047	(323) 754-8346	http://www.winchells.com	-118.3007252	33.930583
220	Rio Coffee	2520 N San Fernando Rd, Los Angeles, CA 90065	(323) 223-9746	not found	-118.240897	34.106989
221	Bambino&#39s Cafe	850 S Arroyo Pkwy, Pasadena, CA 91105	(626) 577-5007	not found	-118.1468263	34.1310948
222	Starbucks Coffee	642 W 34th St, Los Angeles, CA 90007	(213) 740-6285	http://www.starbucks.com	-118.2824174	34.021445
223	Capital One 360 Caf&#xE9	11175 Santa Monica Blvd, Los Angeles, CA 90025	(310) 445-0429	http://cafes.capitalone360.com/los_angeles/?external_id=ENTSOC_YX_Yext360_Profile_0101	-118.4458965	34.0474825
224	Broome Street General Store	2912 Rowena Ave, Los Angeles, CA 90039	(323) 570-0405	http://www.broomestgeneral.com	-118.268554	34.1081878
225	Peet&#39s Coffee & Tea	8833 W Sunset Blvd Suite 100 Retail, West Hollywood, CA 90069	(310) 492-0490	http://www.peets.com	-118.3783347	34.0931603
226	Abby&#39s Diner	4862 Eagle Rock Blvd, Los Angeles, CA 90041	(323) 257-2229	http://www.yelp.com/biz/abbys-diner-los-...	-118.2154341	34.1342092
227	Peet&#39s Coffee & Tea	7660 Beverly Blvd Erewhon Natural Foods Grocery, Los Angeles, CA 90036	(323) 937-6465	http://www.peets.com	-118.3520389	34.0664817
228	Starbucks Coffee	2952 N Beverly Glen Cir, Los Angeles, CA 90077	(310) 470-8121	http://www.starbucks.com	-118.4440018	34.1277986
229	Peet&#39s Coffee & Tea	5601 Wilshire Blvd Ralph&#39s #0289 Grocery, Los Angeles, CA 90036	(323) 936-4954	http://www.peets.com	-118.3520389	34.0664817
230	Bixel Cafe	1055 W 7th St, Los Angeles, CA 90017	(213) 239-5657	not found	-118.2632936	34.0508504
231	Peet&#39s Coffee & Tea	11361 National Blvd Ralph&#39s #0709 Grocery, Los Angeles, CA 90064	(310) 479-4351	http://www.peets.com	-118.4221519	34.0386656
232	Koffea	610 S Berendo St, Los Angeles, CA 90005	(213) 427-1441	not found	-118.2941374	34.0632997
233	Copa Vida	70 S Raymond Ave, Pasadena, CA 91105	(626) 213-3952	http://www.copa-vida.com	-118.1488744	34.1446201
234	Super Snack Stand	2700 N Broadway, Los Angeles, CA 90031	(323) 223-3848	not found	-118.214147	34.0733
235	New Seoul Hotel	2666 W Olympic Blvd Ste 113, Los Angeles, CA 90006	(213) 384-6314	not found	-118.2901236	34.0520489
236	Tea Uniglobe Inc	2 E Main St Ste 2, Alhambra, CA 91801	(626) 576-1209	not found	-118.1257724	34.0952666
237	Cha For Tea	2 E Main St, Alhambra, CA 91801	(626) 576-1209	http://www.chafortea.com	-118.1257724	34.0952666
238	Peet&#39s Coffee & Tea	670 S Western Ave, Los Angeles, CA 90005	(213) 383-5058	http://www.peets.com	-118.3085512	34.0601107
239	The Highland Cafe	5010 York Blvd, Los Angeles, CA 90042	(323) 259-1000	http://www.thehighlandcafela.com	-118.2065699	34.1211365
240	Dolcini Caffe Espresso	865 S Figueroa St, Los Angeles, CA 90017	(213) 622-0140	http://www.camminga.com	-118.2629232	34.0467708
241	Etchea Cafe Bakery & Catering	2280 S Figueroa St, Los Angeles, CA 90007	(213) 744-1903	http://www.etcheabakery.com	-118.2738696	34.0309238
242	Starbucks Coffee	5020 Wilshire Blvd, Los Angeles, CA 90036	(323) 936-2989	http://www.starbucks.com	-118.3389254	34.0618802
243	Peet&#39s Coffee & Tea	5245 W Centinela Ave Ralph&#39s #0185 Grocery, Los Angeles, CA 90045	(310) 641-2813	http://www.peets.com	-118.3875775	33.9516114
244	Cafe Honey Bunny	3200 Wilshire Blvd, Los Angeles, CA 90010	(213) 384-0480	not found	-118.2919637	34.0614543
245	Pasqual Coffee Bars	300 S Grand Ave, Los Angeles, CA 90071	(213) 613-0555	http://www.cit.com	-118.2511985	34.0522486
246	The Coffee Bean & Tea Leaf	7915 W Sunset Blvd, Los Angeles, CA 90046	(323) 851-8392	http://coffeebean.com	-118.362439	34.0982483
247	Drip	3525 W 8th St, Los Angeles, CA 90005	(818) 521-7338	not found	-118.3071801	34.0580418
248	Cafe Caracas	239 E 5th St, Los Angeles, CA 90013	(213) 622-0863	http://www.caracasarepabar.com	-118.2471527	34.0458108
249	Winchell&#39s Donuts	10833 National Blvd, Los Angeles, CA 90064	(310) 474-9010	http://www.winchells.com	-118.4213749	34.03081
250	Muse On Eighth	759 S La Brea Ave, Los Angeles, CA 90036	(323) 933-6873	http://www.museon8th.com	-118.3448431	34.0606616
251	Metro Cafe	2700 Colorado Blvd # 281, Los Angeles, CA 90041	(323) 344-1502	http://www.metrocafela.com	-118.2251116	34.1410815
252	CJ&#39s Cafe	5501 W Pico Blvd, Los Angeles, CA 90019	(323) 936-3216	http://www.cjscafe.net	-118.3575264	34.0491734
253	Literati Cafe	12081 Wilshire Blvd, Los Angeles, CA 90025	(310) 231-7484	http://www.literati2.com	-118.4674315	34.0444609
254	Cafe Avec	3224 W Olympic Blvd #103, Los Angeles, CA 90006	(323) 766-1022	http://cafe-avec.com	-118.3069616	34.052391
255	West Wilshire Cafe	11620 Wilshire Blvd Ste LL, Los Angeles, CA 90025	(310) 445-5320	not found	-118.4484367	34.0448583
256	Coco Tea	11301 W Olympic Blvd # 105, Los Angeles, CA 90064	(310) 312-8937	not found	-118.4418145	34.0385854
257	Cafe Momo	2116 Westwood Blvd, Los Angeles, CA 90025	(310) 470-6601	not found	-118.4323888	34.0450523
258	Milk	7290 Beverly Blvd, Los Angeles, CA 90036	(323) 939-6455	http://www.themilkshop.com	-118.3484353	34.0758712
259	The Porter Junction Cafe	2350 Porter St, Los Angeles, CA 90021	(213) 489-4430	http://blogspot.com	-118.2306096	34.0264123
260	Brite Spot Family Restaurants	1918 W Sunset Blvd, Los Angeles, CA 90026	(213) 484-9800	not found	-118.2613649	34.0777373
261	12th Street Coffee Shop	1107 E 12th St, Los Angeles, CA 90021	(213) 622-9260	http://123order.com	-118.247299	34.0313329
262	Le Pain Quotidien	730 Americana Way, Glendale, CA 91210	(800) 510-3663	http://www.lepainquotidien.us	-118.256354	34.1443918
263	Hedley&#39s Restaurant	640 N Robertson Blvd, West Hollywood, CA 90069	(310) 659-2009	http://www.hedleysrestaurant.com	-118.3852957	34.0820179
264	Starbucks Coffee	6290 W Sunset Blvd, Los Angeles, CA 90028	(323) 464-1859	http://www.starbucks.com	-118.3264099	34.0978304
265	Antique Cafe	3465 W 6th St # 160, Los Angeles, CA 90020	(213) 383-4994	http://antiquecafela.com	-118.2972824	34.0637327
266	BrewWell	3525 W 8th St, Los Angeles, CA 90005	(213) 384-0884	not found	-118.3071801	34.0580418
267	The Coffee Bean & Tea Leaf	8631 W 3rd St , Suite 311E, Los Angeles, CA 90048	(310) 657-6466	http://coffeebean.com	-118.3806969	34.0740315
268	Starbucks Coffee	6745 Hollywood Blvd, Los Angeles, CA 90028	(323) 467-5534	http://www.starbucks.com	-118.3372052	34.1018095
269	Starbucks Coffee	6240 York Blvd, Los Angeles, CA 90042	(323) 478-7365	http://www.starbucks.com	-118.1833406	34.1148192
270	Peet&#39s Coffee & Tea	1515 Westwood Blvd Bristol Farms Westwood #15 Wpb, Los Angeles, CA 90024	(310) 481-0100	http://www.peets.com	-118.4367551	34.0631451
271	The Coffee Bean & Tea Leaf	5979 W 3rd St, Los Angeles, CA 90036	(323) 934-7277	http://coffeebean.com	-118.350807	34.070137
272	Bob&#39s Coffee & Donuts	6333 W 3rd St # 450, Los Angeles, CA 90036	(323) 933-8929	http://farmersmarketla.com	-118.3605725	34.0717892
273	Yogi Tea	1649 S Robertson Blvd, Los Angeles, CA 90035	(310) 275-9891	http://www.yogitea.com	-118.3854594	34.0493772
274	Peet&#39s Coffee & Tea	12057 Wilshire Blvd Ralph&#39s #0044 Grocery, Los Angeles, CA 90025	(310) 477-8746	http://www.peets.com	-118.4484367	34.0448583
275	Le Pain Quotidien	13050 San Vicente Blvd # 114, Los Angeles, CA 90049	(310) 393-8909	http://www.lepainquotidien.us	-118.4911261	34.0481761
276	101 Coffee Shop	6145 Franklin Ave, Los Angeles, CA 90028	(323) 467-1175	not found	-118.3238678	34.1053993
277	Cycleway Coffee	5526 Monterey Rd, Los Angeles, CA 90042	(323) 256-0200	not found	-118.1863848	34.1020042
278	New Frontier Coffee	3620 Overland Ave, Los Angeles, CA 90034	(310) 839-3423	not found	-118.409817	34.022934
279	Peet&#39s Coffee & Tea	4520 W Sunset Blvd Vons #2665 Grocery, Los Angeles, CA 90027	(323) 662-8107	http://www.peets.com	-118.2935891	34.1220545
280	Starbucks Coffee	523 W 6th St, Los Angeles, CA 90014	(213) 327-0208	http://www.starbucks.com	-118.2547171	34.0486546
281	Olympic Cafe	3728 W Olympic Blvd, Los Angeles, CA 90019	(323) 731-5405	not found	-118.3187772	34.0530965
282	Lazy Daisy Cafe	9010 Wilshire Blvd, Beverly Hills, CA 90211	(310) 859-1111	http://www.lazydaisybeverlyhills.com	-118.3880376	34.0668126
283	Paris Baguette	621 S Western Ave Ste 105-106, Los Angeles, CA 90005	(213) 368-0404	http://www.parisbaguetteusa.com	-118.3094718	34.0627014
284	Peet&#39s Coffee & Tea	124 N Larchmont Blvd, Los Angeles, CA 90004	(323) 978-1003	http://www.peets.com	-118.3233313	34.0737619
285	3rd Street Kafe	8428 W 3rd St, Los Angeles, CA 90048	(323) 782-1777	not found	-118.3742013	34.0728992
286	Sell Happiness Inc.	3650 W Martin Luther King Jr Blvd, Los Angeles, CA 90008	(323) 290-0112	not found	-118.3364283	34.0107472
287	Peet&#39s Coffee & Tea	3410 W 3rd St Ralph&#39s #0032 Grocery, Los Angeles, CA 90020	(213) 480-1421	http://www.peets.com	-118.3096648	34.0655627
288	Alfred Coffee & Kitchen	8428 Melrose Pl, West Hollywood, CA 90069	(323) 944-0811	http://alfredcoffee.com	-118.3743244	34.0834207
289	Cost Plus World Market	10860 Santa Monica Blvd, Los Angeles, CA 90025	(310) 441-5115	http://www.worldmarket.com	-118.4367806	34.0494747
290	Angela&#39s Cafe	8539 W Sunset Blvd, West Hollywood, CA 90069	(310) 358-9234	http://www.angelascoffee.com	-118.3778564	34.0938535
291	Bolee&#39s Store	10100 Santa Monica Blvd Ste 160, Los Angeles, CA 90067	(310) 785-0290	http://elllaw.com	-118.416543	34.0616595
292	Oasis Tropical	824 S Broadway, Los Angeles, CA 90014	(213) 627-8820	not found	-118.2551192	34.0431308
293	The Coffee Bean & Tea Leaf	11698 San Vicente Blvd, Los Angeles, CA 90049	(310) 442-1019	http://coffeebean.com	-118.4651147	34.0534971
294	Root Beer Joe&#39s Sandwich Shop	380 S Lake Ave Ste 106, Pasadena, CA 91101	(626) 844-3488	not found	-118.1316777	34.139258
295	Lady Chocolatt Cafe&#39 (previously known as Chocolatt From Belgium)	12008 Wilshire blvd # 101, Los Angeles, CA 90025	(310) 442-2245	http://www.chocolatt.com	-118.4662898	34.044805
296	Starbucks Coffee	5757 Wilshire Blvd, Los Angeles, CA 90036	(323) 931-1013	http://www.starbucks.com	-118.3539114	34.0627069
297	Peet&#39s Coffee & Tea	7880 W Sunset Blvd Bristol Farms #09 Grocery, Los Angeles, CA 90046	(323) 874-6301	http://www.peets.com	-118.3637264	34.1147313
298	Holy Grounds Coffee & Tea	5371 Alhambra Ave, Los Angeles, CA 90032	(323) 222-8884	http://holygroundscoffeeandtea.com	-118.1687368	34.076846
299	Tierra Mia Coffee	653 S Spring St, Los Angeles, CA 90014	(213) 895-6000	http://www.tierramiacoffee.com	-118.2522957	34.044788
300	Maginn&#39s Irish Coffee House	8470 Santa Monica Blvd, West Hollywood, CA 90069	(310) 855-3564	http://www.theirishcoffeehouse.com	-118.3756666	34.0895613
301	Peet&#39s Coffee & Tea	465 S Arroyo Pkwy Whole Foods #37 Grocery, Pasadena, CA 91105	(626) 204-2266	http://www.peets.com	-118.1678543	34.1406082
302	El Paseo Cafe	380 World Way, Los Angeles, CA 90045	(310) 645-6988	not found	-118.4092011	33.9431128
303	Cafe Shinning Bell	319 E 2nd St, Los Angeles, CA 90012	(213) 680-3015	not found	-118.2407169	34.0494689
304	Peet&#39s Coffee & Tea	10309 W Olympic Blvd, Los Angeles, CA 90064	(310) 553-8117	http://www.peets.com	-118.4176823	34.0525718
305	Starbucks Coffee	201 World Way, Los Angeles, CA 90045	(310) 646-6478	http://www.starbucks.com	-118.4025741	33.9422674
306	Peet&#39s Coffee & Tea	11150 Santa Monica Blvd Ste 100, Los Angeles, CA 90025	(877) 502-2837	http://www.peets.com	-118.4451056	34.046896
307	Mini Cafe	12424 Wilshire Blvd, Los Angeles, CA 90025	(310) 826-7722	not found	-118.4704911	34.0412709
308	School Cafe	521 E Green St, Pasadena, CA 91101	(626) 683-7319	http://schoolcafe.org	-118.1392824	34.144762
309	Starbucks Coffee	5301 W Centinela Ave, Los Angeles, CA 90045	(310) 338-1297	http://www.starbucks.com	-118.3719729	33.977576
310	Drnk Coffee & Tea	1528 N Vermont Ave, Los Angeles, CA 90027	(323) 660-1232	http://www.drnkcoffee.com/home	-118.2914743	34.0988556
311	Sunnin Lebanese Cafe	1776 Westwood Blvd, Los Angeles, CA 90024	(310) 475-3358	not found	-118.437281	34.0506349
312	Demi Tasse Cafe	10900 Wilshire Blvd # 150, Los Angeles, CA 90024	(310) 824-3816	not found	-118.4440258	34.058241
313	Cafe Chez Marie	10681 Santa Monica Blvd, Los Angeles, CA 90025	(310) 475-2949	http://www.cafechezmarie.com	-118.4310833	34.0530917
314	Live House	3617 W 3rd St, Los Angeles, CA 90020	(213) 383-5949	http://www.livehouse.com	-118.294919	34.069311
315	Maggie&#39s Coffee Shop	414 E 12th St, Los Angeles, CA 90015	(213) 748-1773	not found	-118.2559084	34.0352129
316	The Coffee Bean & Tea Leaf	8789 W Sunset Blvd, West Hollywood, CA 90069	(310) 659-1890	http://coffeebean.com	-118.3832229	34.0911316
317	Inky&#39s Loft Cafe	420 S San Pedro St # 225, Los Angeles, CA 90013	(213) 229-0073	not found	-118.2430913	34.0452102
318	Traktir	8151 Santa Monica Blvd, West Hollywood, CA 90046	(323) 654-3030	http://www.traktirrestaurant.com	-118.3665933	34.0910855
319	Peet&#39s Coffee & Tea	9616 W Pico Blvd Ralph&#39s #0198 Grocery, Los Angeles, CA 90035	(310) 271-2672	http://www.peets.com	-118.3841777	34.050751
320	Starbucks Coffee	3242 Cahuenga Blvd W, Los Angeles, CA 90068	(323) 876-8032	http://www.starbucks.com	-118.3485665	34.1296051
321	Westdale Doughnuts	2918 Sawtelle Blvd, Los Angeles, CA 90064	(310) 478-6930	http://primosdonuts.com	-118.4316398	34.0269026
322	Peet&#39s Coffee & Tea	260 S La Brea Ave Ralph&#39s #0039 Grocery, Los Angeles, CA 90036	(323) 937-3264	http://www.peets.com	-118.3520389	34.0664817
323	L.A.&#39s Best Deli & Cafe	605 S. Central Ave., Los Angeles, CA 90021	(213) 622-7437	not found	-118.2400311	34.038927
324	Arto&#39s International Cafe & Dl	659 S Broadway, Los Angeles, CA 90014	(213) 488-1117	not found	-118.2533396	34.0455483
325	Starbucks Coffee	333 S Hope St, Los Angeles, CA 90071	(213) 620-1945	http://www.starbucks.com	-118.2534733	34.0533937
326	Starbucks Coffee	101 W Main St, Alhambra, CA 91801	(626) 282-1171	http://www.starbucks.com	-118.1281093	34.0947771
327	Sky Chefs Inc.	6901 W Imperial Hwy, Los Angeles, CA 90045	(424) 223-5500	http://www.lsg-skychefs.com	-118.4150656	33.931452
328	Starbucks Coffee	206 N Larchmont Blvd, Los Angeles, CA 90004	(323) 469-1081	http://www.starbucks.com	-118.3233494	34.0749075
329	The Village Bakery and Cafe	3119 Los Feliz Blvd, Los Angeles, CA 90039	(323) 662-8600	http://www.thevillagebakeryandcafe.com	-118.2673299	34.1243695
330	Puran&#39s Restaurant	2064 Hillhurst Ave, Los Angeles, CA 90027	(323) 667-1357	not found	-118.2870918	34.1093937
331	H Cafe	1750 Hillhurst Ave, Los Angeles, CA 90027	(323) 660-9930	http://hcoffeehousela.com	-118.2871914	34.102885
332	Stir Crazy Coffee Shop	6903 Melrose Ave, Los Angeles, CA 90038	(323) 934-4656	not found	-118.3417374	34.0836747
333	Peet&#39s Coffee & Tea	8480 Beverly Blvd Target #2775 Grocery, Los Angeles, CA 90048	(323) 586-1880	http://www.peets.com	-118.3724915	34.0741548
334	Ronnie&#39s Diner	12740 Culver Blvd Ste J, Los Angeles, CA 90066	(310) 578-9399	http://www.ronniesdiner.com	-118.4250725	33.9853067
335	Adassa&#39s Island Cafe	4305 Degnan Blvd # 103, Los Angeles, CA 90008	(323) 295-0043	not found	-118.3318508	34.005805
336	Yum-Yum Donuts	4815 Valley Blvd # A, Los Angeles, CA 90032	(323) 226-0344	http://www.yumyumdonuts.com	-118.1798559	34.0668792
337	Colab Inc	305 E 8th St, Los Angeles, CA 90014	(213) 988-7017	not found	-118.251388	34.0413073
338	Gloria&#39s Cafe	10227 Venice Blvd, Los Angeles, CA 90034	(310) 838-0963	http://www.gloriascafela.com	-118.4027334	34.021572
339	Starbucks Coffee	300 World Way, Los Angeles, CA 90045	(310) 846-5830	http://www.starbucks.com	-118.4072751	33.9457982
340	Olive Snackshop	3325 Wilshire Blvd, Los Angeles, CA 90010	(213) 383-3335	not found	-118.2947668	34.0623736
341	G & B	3525 W 8th St, Los Angeles, CA 90005	(213) 384-0884	not found	-118.3071801	34.0580418
342	Aladins Coffee Shop	1150 S Hope St, Los Angeles, CA 90015	(213) 747-4032	http://www.aladdinscoffeeshop.com	-118.263903	34.040807
343	Boba Time	125 N Western Ave Ste 103, Los Angeles, CA 90004	(323) 466-2622	http://www.bobatime.com	-118.309153	34.073801
344	HAUS by Coffee Hunter	3826 W 6th St, Los Angeles, CA 90020	(213) 388-5311	not found	-118.3060506	34.0633129
345	Winchell&#39s Donuts	6014 Atlantic Blvd, Maywood, CA 90270	(323) 560-0891	http://www.winchells.com	-118.1857289	33.9847737
346	Tea Joy	500 N Atlantic Blvd, Monterey Park, CA 91754	(626) 872-0800	not found	-118.1339631	34.0694725
347	Proof Bakery	3156 Glendale Blvd, Los Angeles, CA 90039	(323) 664-8633	http://proofbakeryla.com	-118.261584	34.1169451
348	Vintage Enoteca	7554 W Sunset Blvd, Los Angeles, CA 90046	(323) 512-5278	http://www.vintageenoteca.com	-118.3542175	34.0978564
349	Nicoles	928 S Western Ave Ste 145, Los Angeles, CA 90006	(213) 380-4717	http://www.koreatownplaza.com	-118.3084223	34.0552101
350	Starbucks Coffee	1 World Way, Los Angeles, CA 90045	(310) 948-5066	http://www.starbucks.com	-118.4027946	33.94224
351	Dialog Cafe	8766 Holloway Dr, West Hollywood, CA 90069	(310) 289-1630	http://www.dialog-cafe.com	-118.3827228	34.0904267
352	Bourbon Street Cafe	698 S Vermont Ave, Los Angeles, CA 90005	(213) 388-8767	http://thebourbonstreetcafe.com	-118.2916655	34.0598153
353	Starbucks Coffee	11707 San Vicente Blvd, Los Angeles, CA 90049	(310) 207-4202	http://www.starbucks.com	-118.4660924	34.0537425
354	Nick&#39s Cafe	1300 N Spring St, Los Angeles, CA 90012	(323) 222-1450	http://www.nickscafela.com	-118.2331137	34.0660109
355	Winchell&#39s Donuts	438 Fair Oaks Ave, South Pasadena, CA 91030	(626) 799-9324	http://www.winchells.com	-118.1498476	34.120394
356	Larchmont Bungalow	107 N Larchmont Blvd, Los Angeles, CA 90004	(323) 461-1528	http://www.larchmontbungalow.com	-118.3239032	34.0733266
357	Casbah Cafe	3900 W Sunset Blvd, Los Angeles, CA 90029	(323) 664-7000	http://casbahcafechicago.com	-118.2798717	34.0915621
358	Tierra Mia Coffee Company	5528 Monte Vista St, Los Angeles, CA 90042	(323) 344-3844	not found	-118.1962218	34.1106993
359	Cafe D&#39 Etoile	8941 1/2 Santa Monica Blvd, West Hollywood, CA 90069	(310) 278-1011	not found	-118.3854302	34.0843878
360	Phu Cafe	211 Alpine St, Los Angeles, CA 90012	(213) 624-6267	not found	-118.2374567	34.0622698
361	Cafe Ola	3109 W Olympic Blvd, Los Angeles, CA 90006	(213) 637-2375	not found	-118.3035369	34.0529015
362	Starbucks Coffee	639 N Broadway, Los Angeles, CA 90012	(213) 680-7825	http://www.starbucks.com	-118.2399341	34.0596557
363	Green Tea Coffee	800 S Central Ave, Glendale, CA 91204	(818) 244-5465	not found	-118.257465	34.136531
364	Java The Truck	3975 Meier St #101, Los Angeles, CA 90066	(310) 717-6967	http://www.javathetruck.com	-118.437312	33.996825
365	Peet&#39s Coffee & Tea	3461 W 3rd St Vons #2261 Grocery, Los Angeles, CA 90020	(213) 384-6342	http://www.peets.com	-118.3096648	34.0655627
366	Starbucks Coffee	2626 Colorado Blvd, Los Angeles, CA 90041	(323) 258-1355	http://www.starbucks.com	-118.2240827	34.1410828
367	Coffee Preneur LA	2025 S Figueroa St., Los Angeles, CA 90007	(213) 748-1886	not found	-118.2736432	34.0325745
368	Angelino&#39s Coffee	1607 Perrino Pl, Los Angeles, CA 90023	(888) 407-0889	http://www.angelinos.com	-118.222979	34.020215
369	Rae G Cafe	3666 S Soto St, Vernon, CA 90058	(323) 585-5551	not found	-118.2196595	34.0091612
370	Tully&#39s Coffee	855 N Vermont Ave, Los Angeles, CA 90029	(323) 953-4000	http://www.tullyscoffeeshops.com	-118.2927846	34.0892329
371	The Coffee Bean & Tea Leaf	500 World Way, Los Angeles, CA 90045	not found	http://coffeebean.com	-118.40456	33.9413157
372	Starbucks Coffee	1318 Huntington Dr, South Pasadena, CA 91030	(323) 255-1684	http://www.starbucks.com	-118.1528429	34.104235
373	Pronto Caffe	3530 Wilshire Blvd # 102, Los Angeles, CA 90010	(213) 351-9818	not found	-118.3012045	34.0613691
374	Alfred Coffee	8509 Melrose Ave, West Hollywood, CA 90069	(424) 288-4126	http://alfredcoffee.com	-118.3769476	34.0819487
375	Peet&#39s Coffee & Tea	12835 W Washington Blvd, Los Angeles, CA 90066	(310) 577-0747	http://www.peets.com	-118.4378879	33.9957214
376	Nick&#39s Coffee Shop & Deli	8536 W Pico Blvd, Los Angeles, CA 90035	(310) 652-3567	not found	-118.3771138	34.0532708
377	Par S Cafe	1269 Westwood Blvd, Los Angeles, CA 90024	(310) 473-0303	not found	-118.443298	34.057267
378	Breakroom Cafe	3244 Cahuenga Blvd W, Los Angeles, CA 90068	(323) 963-5500	http://www.thebreakroomcafe.com	-118.3485903	34.129759
379	Starbucks Coffee	3535 S La Cienega Blvd, Los Angeles, CA 90016	(310) 895-1131	http://www.starbucks.com	-118.3737911	34.0233064
380	The Coffee Bean & Tea Leaf	18 S Fair Oaks Ave, Pasadena, CA 91105	(626) 449-5499	http://coffeebean.com	-118.1502809	34.1453969
381	Starbucks Coffee	2100 S Atlantic Blvd, Monterey Park, CA 91754	(323) 888-2382	http://www.starbucks.com	-118.14358	34.0390692
382	Yum-Yum Donuts	3610 Venice Blvd, Los Angeles, CA 90019	(323) 733-6075	http://www.yumyumdonuts.com	-118.323899	34.0433692
383	Peet&#39s Coffee & Tea	1416 E Colorado St Ralph&#39s #0060 Grocery, Glendale, CA 91205	(818) 548-0945	http://www.peets.com	-118.2468148	34.1337367
384	Peet&#39s Coffee & Tea	12027 San Vicente Blvd Vicente Foods; Inc Grocery, Los Angeles, CA 90049	(310) 472-5215	http://www.peets.com	-118.4980744	34.0963058
385	El Tarasco Cafe	2130 S San Pedro St, Los Angeles, CA 90011	(213) 746-8781	not found	-118.2588653	34.02498
386	Ozero by Cofftea	131 S Central Ave, Los Angeles, CA 90012	(213) 626-8889	not found	-118.2395445	34.048289
387	Urth Caffe	8565 Melrose Ave, West Hollywood, CA 90069	(310) 659-0628	http://www.urthcaffe.com	-118.378866	34.0821163
388	Starbucks Coffee	1258 S La Brea Ave, Los Angeles, CA 90019	(323) 934-2408	http://www.starbucks.com	-118.3440113	34.0509876
389	ChocoVivo	12469 W Washington Blvd, Los Angeles, CA 90066	(310) 845-6259	http://www.chocovivo.com	-118.4304379	33.9970667
390	Spudnuts Donuts	4949 W Slauson Ave, Los Angeles, CA 90056	(323) 292-8770	http://www.spudnutinfo.com	-118.3645695	33.9878244
391	Yum-Yum Donuts	2633 N Figueroa St, Los Angeles, CA 90065	(323) 224-9308	http://www.yumyumdonuts.com	-118.2222454	34.084021
392	Speedy ATM	3250 Wilshire Blvd, Los Angeles, CA 90010	(213) 738-5204	not found	-118.2932706	34.0610743
393	Spoke Bicycle Cafe	3050 N Coolidge Ave, Los Angeles, CA 90039	(323) 684-1130	http://spokebicyclecafe.com/index.php/contact	-118.2435685	34.1050986
394	Starbucks Coffee	1898 Westwood Blvd, Los Angeles, CA 90025	(310) 470-8494	http://www.starbucks.com	-118.4353086	34.0483898
395	Lupitas Cafe	6428 Compton Ave, Los Angeles, CA 90001	(323) 585-0211	not found	-118.2474749	33.9809007
396	Caffe Pausa	3530 Wilshire Blvd Ste 102, Los Angeles, CA 90010	(213) 351-9818	not found	-118.3012045	34.0613691
397	Starbucks Coffee	11727 W Olympic Blvd, Los Angeles, CA 90064	(310) 473-5238	http://www.starbucks.com	-118.4492873	34.0347927
398	Upstage Cafe	607 S Western Ave, Los Angeles, CA 90005	(213) 739-9913	not found	-118.3093443	34.0631213
399	Peet&#39s Coffee & Tea	8969 Santa Monica Blvd Pavillions #2739 Grocery, West Hollywood, CA 90069	(310) 595-1730	http://www.peets.com	-118.3783347	34.0931603
400	Yum-Yum Donuts	1608 S Hoover St, Los Angeles, CA 90006	(213) 745-4460	http://www.yumyumdonuts.com	-118.2838495	34.0432775
401	Starbucks Coffee	8701 Lincoln Blvd, Los Angeles, CA 90045	(310) 649-1526	http://www.starbucks.com	-118.4185193	33.9583063
402	Cofax Coffee Shop	440 N Fairfax Ave, Los Angeles, CA 90036	(323) 424-7485	not found	-118.3612051	34.0793404
403	Starbucks Coffee	1601 Wilshire Blvd, Los Angeles, CA 90017	(213) 484-0958	http://www.starbucks.com	-118.270232	34.0556569
404	Peet&#39s Coffee & Tea	2195 Glendale Galleria, Glendale, CA 91210	(818) 334-1400	http://www.peets.com	-118.2591868	34.1459392
405	Mocafe	7900 Santa Monica Blvd, West Hollywood, CA 90046	(323) 848-7161	http://www.mocafela.com	-118.3617476	34.0905454
406	Starbucks Coffee	3150 Wilshire Blvd, Los Angeles, CA 90010	(213) 384-3578	http://www.starbucks.com	-118.2906123	34.0617742
407	Peet&#39s Coffee & Tea	855 N Wilcox Ave, Montebello, CA 90640	(323) 888-4204	http://www.peets.com	-118.1261766	34.0314043
408	Coffee Connection	3838 S Centinela Ave, Los Angeles, CA 90066	(310) 391-1380	not found	-118.4327489	34.0030983
409	The Coffee Bean & Tea Leaf	7235 Beverly Blvd, Los Angeles, CA 90036	(323) 934-1449	http://coffeebean.com	-118.3472712	34.076353
410	Yum-Yum Donuts	6600 E Olympic Blvd, Los Angeles, CA 90022	(323) 721-4122	http://www.yumyumdonuts.com	-118.1304608	34.0110726
411	Shaky Alibi	7401 Beverly Blvd, Los Angeles, CA 90036	(323) 938-5282	http://www.shakyalibi.com	-118.351275	34.076421
412	Healing Coffee Roasters	5007 W Pico Blvd, Los Angeles, CA 90019	(323) 934-3837	http://healingcoffeeroasters.com	-118.3460751	34.0479571
413	Peet&#39s Coffee & Tea	4760 W Pico Blvd Ralph&#39s #0291 Grocery, Los Angeles, CA 90019	(323) 937-4107	http://www.peets.com	-118.3403506	34.0489277
414	Zuma Kitchen Midterranean	1942 Westwood Blvd, Los Angeles, CA 90025	(310) 446-0055	https://www.zumakitchen.com	-118.4346712	34.0476396
415	Cafecito Organico	710 N Heliotrope Dr, Los Angeles, CA 90029	(213) 537-8367	http://www.cafecitoorganico.com	-118.2946972	34.0839914
416	The Coffee Bean & Tea Leaf	1500 Westwood Blvd, Los Angeles, CA 90024	(310) 470-4226	http://coffeebean.com	-118.440308	34.054108
417	Cafe At The Vista	4469 Sunset Dr, Los Angeles, CA 90027	(323) 660-4722	not found	-118.2867433	34.0981795
418	Starbucks Coffee	753 S Arroyo Pkwy, Pasadena, CA 91105	(626) 796-7330	http://www.starbucks.com	-118.1479394	34.1327061
419	Apetit	2500 Wilshire Blvd, Los Angeles, CA 90057	(213) 252-5226	http://eatapetit.com	-118.2811887	34.0600418
420	Taha Cafe & Restaurant	1781 Westwood Blvd, Los Angeles, CA 90024	(310) 473-1781	not found	-118.4373418	34.050162
421	Philz Coffee Inc.	801 S Hope St, Los Angeles, CA 90017	(213) 213-2616	not found	-118.259583	34.0463414
422	Cafe De Leche	5000 York Blvd, Los Angeles, CA 90042	(323) 551-6828	http://www.cafedeleche.net	-118.2068646	34.1212357
423	Peet&#39s Coffee & Tea	11674 Santa Monica Blvd Vons #2267 Grocery, Los Angeles, CA 90025	(310) 820-1012	http://www.peets.com	-118.4484367	34.0448583
424	Kt Cafe	501 W Garvey Ave Ste 108, Monterey Park, CA 91754	(626) 576-8028	not found	-118.129612	34.062744
425	The Coffee Bean & Tea Leaf	5115 Wilshire Blvd Unit G, Los Angeles, CA 90036	(323) 879-8055	http://coffeebean.com	-118.3411527	34.0623511
426	Caffe Carrera	235 S La Cienega Blvd, Beverly Hills, CA 90211	(310) 652-5992	not found	-118.3764124	34.0640573
427	Peet&#39s Coffee & Tea	175 S Fairfax Ave, Los Angeles, CA 90036	(323) 648-4980	http://www.peets.com	-118.3618536	34.0720748
428	Paris Baguette	3470 W 6th St, Los Angeles, CA 90020	(213) 384-0404	http://www.parisbaguetteusa.com	-118.2973745	34.0633291
429	Miss Coffee	300 S Hobart Blvd, Los Angeles, CA 90020	(213) 380-7574	not found	-118.3051281	34.0688303
430	Starbucks Coffee	359 N La Brea Ave, Los Angeles, CA 90036	(323) 525-0164	http://www.starbucks.com	-118.3440882	34.0777795
431	Teavana	10205 Santa Monica Blvd #134, Los Angeles, CA 90067	(310) 277-0121	http://www.teavana.com	-118.4200288	34.0604843
432	Warung Cafe	118 W 4th St, Los Angeles, CA 90013	(213) 626-0662	not found	-118.2479281	34.0484148
433	Caffe Bello	8719 Santa Monica Blvd, West Hollywood, CA 90069	(310) 659-9756	not found	-118.3808133	34.0874082
434	Starbucks Coffee	100 World Way, Los Angeles, CA 90045	(310) 646-0737	http://www.starbucks.com	-118.4005654	33.9449481
435	Starbucks Coffee	1000 Fair Oaks Ave, South Pasadena, CA 91030	(626) 441-2754	http://www.starbucks.com	-118.1499674	34.1146912
436	Peet&#39s Coffee & Tea	1213 Fair Oaks Ave Pavilions #2228 Grocery, South Pasadena, CA 91030	(626) 799-2261	http://www.peets.com	-118.1503488	34.1161196
437	Gourmet Coffee Warehouse	920 N Formosa Ave, Los Angeles, CA 90046	(323) 930-3911	not found	-118.345848	34.087857
438	The Coffee Bean & Tea Leaf	10800 W Pico Blvd, Los Angeles, CA 90064	(310) 441-5918	http://coffeebean.com	-118.4274689	34.0401391
439	Cafe 5901	5901 W Olympic Blvd, Los Angeles, CA 90036	(323) 215-3000	http://www.cafe5901.com	-118.3599415	34.0579099
440	Peet&#39s Coffee & Tea	10250 Santa Monica Blvd Gelson&#39s #04 Grocery, Los Angeles, CA 90067	(310) 277-4288	http://www.peets.com	-118.4148498	34.0571327
441	The Coffee Bean & Tea Leaf	900 W 34th St Suite 130A, Los Angeles, CA 90007	(213) 821-3482	http://coffeebean.com	-118.2871985	34.0233381
442	Golden Night Cafe	5123 W Sunset Blvd, Los Angeles, CA 90027	(323) 906-9924	not found	-118.3016469	34.098717
443	Groundwork Coffee Co	5522 Venice Blvd, Los Angeles, CA 90019	(323) 930-3911	http://www.groundworkcoffee.com	-118.359722	34.043517
444	Night Toast	653 S Spring St, Los Angeles, CA 90014	(213) 488-9944	not found	-118.2522957	34.044788
445	Groundwork Coffee Co	811 Traction Ave, Los Angeles, CA 90013	(213) 626-6060	not found	-118.235313	34.0452579
446	Starbucks Coffee	380 World Way, Los Angeles, CA 90045	(310) 948-5066	http://www.starbucks.com	-118.4092011	33.9431128
447	Dukes	8909 W Sunset Blvd, West Hollywood, CA 90069	(310) 652-3100	http://www.dukeanddukegallery.com	-118.3858214	34.0908487
448	Euro Coffee Bar	3600 Wilshire Blvd, Los Angeles, CA 90010	(213) 382-0024	not found	-118.3036388	34.0607067
449	Main Street Cafe	99 N La Cienega Blvd, Beverly Hills, CA 90211	(310) 289-1196	http://www.mainstreetcafe.biz	-118.3765631	34.0674545
450	Point De Vue	5974 W Pico Blvd, Los Angeles, CA 90035	(323) 965-2251	not found	-118.3703805	34.0520342
451	Peet&#39s Coffee & Tea	6350 W 3rd St Whole Foods; La 3rd And Fairf Grocery, Los Angeles, CA 90036	(323) 964-6800	http://www.peets.com	-118.3520389	34.0664817
452	Starbucks Coffee	1220 W Main St, Alhambra, CA 91801	(626) 308-3290	http://www.starbucks.com	-118.1364175	34.0915454
453	Cafe Dulce	134 Japanese Village Plaza Mall, Los Angeles, CA 90012	(213) 346-9910	http://www.cafedulce.co	-118.2398959	34.0490528
454	Delice Bakery	8583 W Pico Blvd, Los Angeles, CA 90035	(310) 289-6556	http://delicebakery.com	-118.3779622	34.0539679
455	Teavana	8500 Beverly Blvd #650, Los Angeles, CA 90048	(310) 358-0618	http://www.teavana.com	-118.3774933	34.0753309
456	The Coffee Bean & Tea Leaf	8500 Beverly Blvd, Los Angeles, CA 90048	(310) 659-7330	http://coffeebean.com	-118.3774933	34.0753309
457	Coffee Zinio	1731 Westwood Blvd, Los Angeles, CA 90024	(310) 575-9999	http://www.coffeezinio.com	-118.4384407	34.0508903
458	Vicktoria&#39s Bakery & Cafe	2329 W Whittier Blvd, Montebello, CA 90640	(323) 728-2425	not found	-118.1268748	34.0139331
459	Star Bean Cafe & Deli	10940 Wilshire Blvd, Los Angeles, CA 90024	(310) 209-1007	http://www.starbeanla.com	-118.4450106	34.0580431
460	Beach Nation	8289 Santa Monica Blvd, West Hollywood, CA 90046	(323) 654-0020	http://beachnation.com	-118.3700299	34.0908882
461	Lamill Coffee Boutique	1636 Silver Lake Blvd, Los Angeles, CA 90026	(323) 663-4441	http://www.lamillcoffee.com	-118.2686075	34.0888261
462	Southwestern Law School Cafe	3050 Wilshire Blvd, Los Angeles, CA 90010	(213) 388-2541	http://www.swlaw.edu	-118.2884225	34.0613992
463	Kingsley Fusion Cafe and Restaurant	4083 W 3rd St, Los Angeles, CA 90020	(408) 393-7378	not found	-118.3026446	34.0691621
464	Charlie&#39s Coffee Shop	6333 West 3rd St., Los Angeles, CA 90036	(323) 933-0616	not found	-118.3605725	34.0717892
465	Starbucks Coffee	5601 Wilshire Blvd, Los Angeles, CA 90036	(323) 936-4954	http://www.starbucks.com	-118.3510386	34.0628943
466	Mix City Coffee Roasters	5550 W Pico Blvd, Los Angeles, CA 90019	(323) 936-0931	not found	-118.3595715	34.0494111
467	Coffee On Central	3310 S Central Ave, Los Angeles, CA 90011	(323) 235-5494	not found	-118.256385	34.0133591
468	Starbucks Coffee	1131 S Fremont Ave, Alhambra, CA 91803	(626) 457-5234	http://www.starbucks.com	-118.1522684	34.0805388
469	Coffee Beanery	1225 E Washington Blvd, Los Angeles, CA 90021	(213) 747-1693	http://www.coffeebeanery.com	-118.2507441	34.0255156
470	Starbucks Coffee	3060 E Slauson Ave, Huntington Park, CA 90255	(323) 585-6735	http://www.starbucks.com	-118.2135784	33.9891836
471	Kaldi Coffee & Tea	3147 Glendale Blvd, Los Angeles, CA 90039	(323) 660-6005	not found	-118.262172	34.1171448
472	Orange Tree Cafe	3500 W 6th St Ste 301, Los Angeles, CA 90020	(213) 388-8876	http://www.orange.1stdibs.com/search.php	-118.2985898	34.063417
473	Joseph&#39s Cafe	1775 Ivar Ave, Los Angeles, CA 90028	(323) 462-8697	http://www.factual.com/c724cc9f-7d35-4eb4-90ba-b3a46be4b273	-118.3281759	34.1033321
474	Food Lab Catering	7253 Santa Monica Blvd, West Hollywood, CA 90046	(323) 851-7120	http://www.foodlab-la.com	-118.348048	34.090885
475	Yum-Yum Donuts	1976 S La Cienega Blvd, Los Angeles, CA 90034	(310) 836-6061	http://www.yumyumdonuts.com	-118.3764848	34.0405725
476	Tribal Cafe	1651 W Temple St, Los Angeles, CA 90026	(213) 483-4458	http://www.tribalcafe.com	-118.2626408	34.0686591
477	Starbucks Coffee	1213 Fair Oaks Ave, South Pasadena, CA 91030	(626) 799-2261	http://www.starbucks.com	-118.151509	34.1115748
478	Starbucks Coffee	400 World Way, Los Angeles, CA 90045	not found	http://www.starbucks.com	-118.407032	33.9412674
479	Starbucks Coffee	11155 Santa Monica Blvd, Los Angeles, CA 90025	(310) 312-2903	http://www.starbucks.com	-118.4453733	34.0474278
480	Starbucks Coffee	10911 W Pico Blvd, Los Angeles, CA 90064	(310) 470-8863	http://www.starbucks.com	-118.4300596	34.0397093
481	Peet&#39s Coffee & Tea	1129 Fair Oaks Ave Vons #3075 Grocery, South Pasadena, CA 91030	(626) 441-3898	http://www.peets.com	-118.1503488	34.1161196
482	Cafe Troyka	7300 W Sunset Blvd Ste J, Los Angeles, CA 90046	(323) 851-5531	not found	-118.3499347	34.0976232
483	Nestle Toll House Cafe	6801 Hollywood Blvd, Los Angeles, CA 90028	(323) 467-1330	http://www.nestlecafe.com	-118.3399805	34.1026077
484	Starbucks Coffee	800 N Alameda St, Los Angeles, CA 90012	(213) 621-2862	http://www.starbucks.com	-118.2365998	34.0558326
485	Tazza Bianca	146 S Lake Ave Ste 108, Pasadena, CA 91101	(626) 796-9912	not found	-118.1320254	34.1431524
486	Modena	3512 W 8th St, Los Angeles, CA 90005	(213) 384-8759	not found	-118.3076805	34.057358
487	Primo&#39s Expresso Americana	333 S Spring St, Los Angeles, CA 90013	(213) 628-1520	not found	-118.2479591	34.0497243
488	Roosevelt Cafe	2650 N Vermont Ave, Los Angeles, CA 90027	(323) 674-0000	http://www.golf.lacity.org/cdp_roosevelt.htm	-118.2922441	34.1177893
489	Howard&#39s Cafe	1051 S Alvarado St, Los Angeles, CA 90006	(213) 385-7991	http://howardscafe.com	-118.2810474	34.050845
490	Peet&#39s Coffee & Tea	5600 Whittier Blvd Target #0189 Grocery, Commerce, CA 90022	(323) 725-1121	http://www.peets.com	-118.153228	34.0238187
491	Le Pain Quotidien	113 N Larchmont Blvd, Los Angeles, CA 90004	(323) 461-7701	http://www.lepainquotidien.us	-118.323912	34.0734686
492	Starbucks Coffee	13050 San Vicente Blvd, Los Angeles, CA 90049	(310) 395-8212	http://www.starbucks.com	-118.4911261	34.0481761
493	Starbucks Coffee	7624 Melrose Ave, Los Angeles, CA 90046	(323) 852-9690	http://www.starbucks.com	-118.356174	34.083436
494	Winchell&#39s Donuts	571 S Lake Ave, Pasadena, CA 91101	(626) 396-7065	http://www.winchells.com	-118.1324641	34.1361237
495	Winchell&#39s Donuts	101 W Florence Ave, Los Angeles, CA 90003	(323) 753-9850	http://www.winchells.com	-118.2743707	33.9749279
496	The Coffee Bean & Tea Leaf	8328 Wilshire Blvd, Beverly Hills, CA 90211	(323) 852-9988	http://coffeebean.com	-118.3728806	34.0641327
497	The Bishop Coffee & Gourmet	816 S Grand Ave, Los Angeles, CA 90017	(213) 239-0411	not found	-118.2580629	34.0452437
498	Spring for Coffee	548 S Spring St, Los Angeles, CA 90013	(213) 228-0041	http://www.umami.com/umamicatessen	-118.2503649	34.0458313
499	Snook Nuk Play	506 N Larchmont Blvd, Los Angeles, CA 90004	(323) 498-5258	not found	-118.323316	34.07924
500	Peet&#39s Coffee & Tea	7311 N Figueroa St Vons #2655 Grocery, Los Angeles, CA 90041	(323) 254-5716	http://www.peets.com	-118.2117257	34.1322469
501	The Coffee Bean & Tea Leaf	3183 Wilshire Blvd, Los Angeles, CA 90010	(213) 381-6853	http://coffeebean.com	-118.2908319	34.0624616
502	Clementine	1751 Ensley Ave, Los Angeles, CA 90024	(310) 552-1080	http://www.clementineonline.com	-118.4209254	34.0602419
503	Local Table	800 S Figueroa St, Los Angeles, CA 90017	(213) 488-2654	not found	-118.2611342	34.0475245
504	Daks Cafe	8899 Beverly Blvd Ste 201, Los Angeles, CA 90048	(310) 275-4780	not found	-118.3862062	34.0775412
505	Chimney Brick Toast Coffee Hse	1100 N Main St # B, Los Angeles, CA 90012	(323) 343-0030	http://lax-c.com	-118.2325402	34.0631569
506	Winchell&#39s Donuts	928 W Florence Ave, Los Angeles, CA 90044	(323) 789-6753	http://www.winchells.com	-118.2904357	33.9744589
507	Black Cat Cafe	8687 Melrose Ave, West Hollywood, CA 90069	(310) 360-0300	not found	-118.3823838	34.082157
508	Starbucks Coffee	5855 W Century Blvd, Los Angeles, CA 90045	(310) 641-5700	http://www.starbucks.com	-118.3842876	33.9464605
509	Corner Bakery Cafe	345 S Lake Ave Ste 107, Pasadena, CA 91101	(626) 578-1281	http://www.cornerbakerycafe.com	-118.1329003	34.140119
510	Winchell&#39s Donuts	3610 Venice Blvd, Los Angeles, CA 90019	(323) 733-6075	http://www.winchells.com	-118.323899	34.0433692
511	Bricks & Scones	403 N Larchmont Blvd, Los Angeles, CA 90004	(323) 463-0811	http://www.bricksandscones.com	-118.323998	34.077686
512	Kings Road Cafe	8361 Beverly Blvd, Los Angeles, CA 90048	(323) 655-8674	http://www.kingsroadcafe.com	-118.372293	34.076345
513	Kind Friendly Cafe	9850 Exposition Blvd, Los Angeles, CA 90034	(310) 836-5463	http://www.kindforcures.com	-118.4031629	34.0290394
514	Bobaloca	10946 Weyburn Ave, Los Angeles, CA 90024	(310) 443-8911	http://www.boba-loca.com	-118.4467585	34.0624002
515	Petite Cafe	633 W 5th St, Los Angeles, CA 90071	(213) 688-1122	http://www.petitecafepickup.com	-118.2543221	34.0511203
516	Montecarlo Coffee Shop	3450 W 6th St Ste 111, Los Angeles, CA 90020	(213) 389-4553	http://www.hollys.co.kr	-118.2966711	34.0635651
517	Starbucks Coffee	445 S Figueroa St #205, Los Angeles, CA 90071	(213) 623-9191	http://www.starbucks.com	-118.2570036	34.053263
518	Mel&#39s Bakery & Cafe	1977 W 48th St, Los Angeles, CA 90062	(323) 293-0193	not found	-118.315879	34.0002287
519	Dreams Cafe & Bar	5625 W Sunset Blvd, Hollywood, CA 90028	(323) 465-2233	http://www.dunesinnsunset.com/dining	-118.3126496	34.0983194
520	Boba Time	11207 National Blvd, Los Angeles, CA 90064	(310) 445-9882	http://www.itsbobatime.com	-118.4289988	34.0272652
521	Paper or Plastik Cafe	5772 W Pico Blvd, Los Angeles, CA 90019	(323) 935-0268	http://www.paperorplastikcafe.com	-118.3644004	34.0508251
522	Peet&#39s Coffee & Tea	9860 National Blvd Vons #2100 Grocery, Los Angeles, CA 90034	(310) 836-4161	http://www.peets.com	-118.395863	34.0324632
523	The Coffee Bean & Tea Leaf	950 Westwood Blvd, Los Angeles, CA 90024	(310) 208-8018	http://coffeebean.com	-118.4449463	34.0628103
524	Tom N Toms 3240	3240 Wilshire Blvd # 102, Los Angeles, CA 90010	(213) 380-3875	http://en.tomntoms.com	-118.2925119	34.0614708
525	Caffe Luxxe	11973 San Vicente Blvd, Los Angeles, CA 90049	(310) 440-7802	http://caffeluxxe.com	-118.471947	34.052824
526	Starbucks Coffee	1410 S Atlantic Blvd, Alhambra, CA 91803	(626) 289-7624	http://www.starbucks.com	-118.1339969	34.077107
527	G & B Coffee	317 S Broadway # 6, Los Angeles, CA 90013	(213) 625-0747	http://gandbcoffee.com	-118.2487951	34.050655
528	Coffee Bean and Tea Leaf	1945 S La Cienega Blvd, Los Angeles, CA 90034	(310) 237-2326	http://www.coffeebean.com	-118.3769931	34.041421
529	Starbucks Coffee	1149 S Hill St, Los Angeles, CA 90015	(213) 749-0487	http://www.starbucks.com	-118.2611507	34.0393079
530	Cafe Brentwood	150 S Barrington Ave, Los Angeles, CA 90049	(310) 472-0766	http://cafebrentwood.com	-118.4694412	34.0647115
531	Go Get Em Tiger	230 N Larchmont Blvd, Los Angeles, CA 90004	(323) 380-5359	http://ggetla.com	-118.3232999	34.0755874
532	Lamill Coffee	1112 Westminster Ave, Alhambra, CA 91803	(626) 202-0100	http://www.lamillcoffee.com	-118.1551747	34.0814714
533	Cake Studio Cafe	315 Glendale Blvd, Los Angeles, CA 90026	(213) 483-2253	http://www.cakestudiola.com	-118.2603615	34.0659934
534	Starbucks Coffee	82 S Lake Ave, Pasadena, CA 91101	(626) 405-1592	http://www.starbucks.com	-118.1320347	34.1441425
535	Elabrew Coffee	127 E 6th St, Los Angeles, CA 90014	(213) 628-3020	not found	-118.249288	34.044807
536	Brasil Kiss Coffeebar	6350 Santa Monica Blvd, Los Angeles, CA 90038	(323) 498-6099	not found	-118.3279657	34.0904483
537	Bldg Sunset Junction	4141 Santa Monica Blvd, Los Angeles, CA 90029	(323) 669-7941	not found	-118.28289	34.091799
538	Casa Princesa	4527 York Blvd, Los Angeles, CA 90041	(323) 474-6860	not found	-118.2172667	34.12382
539	The Macchiato	141 N Atlantic Blvd, Monterey Park, CA 91754	(626) 872-1351	http://www.gotmacchiato.com/home.php	-118.1346026	34.064093
540	Amandine Patissiere	12225 Wilshire Blvd, Los Angeles, CA 90025	(310) 979-3211	http://amandinecafe.com	-118.4689334	34.0432285
541	The Coffee Bean & Tea Leaf	1 Lmu Dr, Los Angeles, CA 90045	(310) 686-1916	http://coffeebean.com	-118.4224641	33.9668816
542	Apple Cafe	435 S Los Angeles St, Los Angeles, CA 90013	(213) 623-7003	http://www.applerestaurantlounge.com	-118.2472391	34.0467475
543	Middle East Club	1707 N Kenmore Ave, Los Angeles, CA 90027	(323) 661-0430	not found	-118.2974056	34.1021572
544	Starbucks Coffee	2049 Century Park E, Los Angeles, CA 90067	(310) 286-3023	http://www.starbucks.com	-118.4130375	34.0586446
545	Starbucks Coffee	5080 Rodeo Rd, Los Angeles, CA 90016	(323) 292-0633	http://www.starbucks.com	-118.3548499	34.0202383
546	Chado Tea Room	6801 Hollywood Blvd # 209, Los Angeles, CA 90028	(323) 472-8111	not found	-118.3399805	34.1026077
547	Peet&#39s Coffee & Tea	8985 Venice Blvd Albertsons #6169 Grocery, Los Angeles, CA 90034	(310) 202-6167	http://www.peets.com	-118.395863	34.0324632
548	Cafe Storygarden	338 S Western Ave, Los Angeles, CA 90020	(213) 389-9853	not found	-118.308713	34.067818
549	Yum-Yum Donuts	4503 N Figueroa St, Los Angeles, CA 90065	(323) 343-1593	http://www.yumyumdonuts.com	-118.207451	34.0962383
550	Mocha Cafe	695 S Vermont Ave, Los Angeles, CA 90005	(213) 386-8612	not found	-118.2916999	34.0599713
551	Mitchel Cafe & Grill	6103 Pacific Blvd, Huntington Park, CA 90255	(323) 588-2323	not found	-118.2254167	33.9852119
552	Organic Green Tea	2363 S Robertson Blvd, Los Angeles, CA 90034	(310) 204-1599	not found	-118.388224	34.040006
553	Toffee Sensations	1530 W Manchester Ave, Los Angeles, CA 90047	(323) 971-1727	http://www.toffeesensations.com	-118.3035192	33.9597021
554	Chango Coffee Shop	1559 Echo Park Ave, Los Angeles, CA 90026	(213) 977-9161	http://www.changoechopark.com	-118.2547587	34.0813853
555	Hotcakes Bakes	4119 S Centinela Ave, Los Angeles, CA 90066	(310) 397-2324	http://hotcakesbakes.com	-118.4282377	33.996461
556	The Buttercup LA	11301 W Olympic Blvd Ste 106, Los Angeles, CA 90064	(310) 478-7999	http://www.thebuttercupla.com	-118.4418145	34.0385854
557	Lulu&#39s Cafe	7149 Beverly Blvd, Los Angeles, CA 90036	(323) 938-6095	not found	-118.345333	34.0764143
558	Beard Papa&#39s	333 S Alameda St, Los Angeles, CA 90013	(213) 620-0710	http://muginohointl.com/locations/little-tokyo-shopping-center	-118.2384922	34.0452743
559	Cafe Brasil	11736 W Washington Blvd, Los Angeles, CA 90066	(310) 391-1216	http://www.cafe-brasil.com	-118.4182812	33.9993241
560	Peet&#39s Coffee & Tea	6820 Eastern Ave Walmart #5688 Grocery, Bell Gardens, CA 90201	(323) 282-2503	http://www.peets.com	-118.1514588	33.9652918
561	Winchell&#39s Donuts	7158 Melrose Ave, Los Angeles, CA 90046	(323) 938-8578	http://www.winchells.com	-118.3455075	34.0832413
562	Posh Portage Inc	606 W El Segundo Blvd Unit B, Los Angeles, CA 90061	(888) 767-4482	http://poshportage.com	-118.2850049	33.9158922
563	Green Source Coffee	116 S Medio Dr, Los Angeles, CA 90049	(310) 472-2058	not found	-118.481584	34.057076
564	Upstage Cafe	16821 Burbank Blvd, Los Angeles, CA 90010	(213) 739-9913	not found	-118.4972498	34.1702607
565	Don Raul Coffee Co.	5707 S Alameda St, Vernon, CA 90058	(323) 854-5112	http://www.donraulcoffee.com	-118.2383456	33.990706
566	Petrossian Paris Cafe & Boutique	321 N Robertson Blvd, West Hollywood, CA 90048	(310) 271-6300	http://www.petrossian.com/restaurant-west-hollywood-restaurant-and-boutique-7.html	-118.383954	34.077761
567	Drugstore Cafe	1513 S Grand Ave, Los Angeles, CA 90015	(310) 657-4526	not found	-118.2665758	34.0361133
568	Crown Coffee Services Warehouse	541 S Raymond Ave, Pasadena, CA 91105	(626) 351-6100	http://www.crowncoffeeservices.com	-118.1489881	34.1364902
569	The Coffee Bean & Tea Leaf	6320 E Washington Blvd, Commerce, CA 90040	(323) 890-2904	http://coffeebean.com	-118.1430477	33.9953255
570	Romeo & Juliet	1032 Crenshaw Blvd, Los Angeles, CA 90019	(323) 938-0507	not found	-118.3231592	34.0537072
571	Starbucks Coffee	11705 National Blvd, Los Angeles, CA 90064	(310) 914-4585	http://www.starbucks.com	-118.4390126	34.0227656
572	Cafe Hama	4507 S Centinela Ave, Los Angeles, CA 90066	(310) 301-3399	not found	-118.423262	33.9925938
573	Peet&#39s Coffee & Tea	2320 Mercury Ave Los Angeles Afb Grocery, Los Angeles, CA 90031	(310) 363-6140	http://www.peets.com	-118.2117257	34.081032
574	Starbucks Coffee	350 S Grand Ave Ste B5, Los Angeles, CA 90071	(213) 626-0466	http://www.starbucks.com	-118.2515594	34.0514021
575	Peet&#39s Coffee & Tea	11750 San Vicente Blvd, Los Angeles, CA 90049	(310) 979-7892	http://www.peets.com	-118.4675212	34.0530301
576	The Boulevard Market Cafe	5985 W Century Blvd, Los Angeles, CA 90045	(310) 642-7500	not found	-118.3889241	33.9458671
577	Verve Coffee Roasters	8051 W 3rd St, Los Angeles, CA 90048	(323) 424-7008	not found	-118.3650134	34.0721495
578	Sunday Cafe	396 S Los Angeles St # 26, Los Angeles, CA 90013	(213) 620-9919	not found	-118.245712	34.047224
579	Pico Cafe	8944 W Pico Blvd, Los Angeles, CA 90035	(310) 385-9592	http://www.kosherpicocafe.com	-118.3870232	34.0552687
580	Starbucks Coffee	575 S Lake Ave, Pasadena, CA 91101	(626) 795-0918	http://www.starbucks.com	-118.1324826	34.1360148
581	Bobo Loca	3121 Glendale Blvd, Los Angeles, CA 90039	(323) 210-3484	not found	-118.262517	34.1165521
582	Seattle&#39s Best Coffee	10250 Santa Monica Blvd, Los Angeles, CA 90067	(310) 552-1411	http://www.seattlesbest.com	-118.4194176	34.0596101
583	Cafe La Casita	5115 W Sunset Blvd, Los Angeles, CA 90027	(858) 205-2148	http://www.cafelacasita.com	-118.301128	34.098495
584	Starbucks Coffee	300 E Green St, Pasadena, CA 91101	(626) 793-2122	http://www.starbucks.com	-118.1441489	34.143823
585	Joe & K&#39s Deli	2601 S Soto St, Vernon, CA 90058	(323) 268-5772	http://www.joeksdeli.com	-118.2199326	34.014399
586	Mr Espresso	3620 Overland Ave, Los Angeles, CA 90034	(310) 839-3061	not found	-118.409817	34.022934
587	Persepolis Cafe	1269 Westwood Blvd, Los Angeles, CA 90024	(310) 914-2468	not found	-118.443298	34.057267
588	Tisket A Tasket Catering & Food Services	3850 W Slauson Ave, Los Angeles, CA 90043	(323) 291-8021	http://www.tisketatasketcatering.com	-118.3415532	33.9887405
589	Wood Cafe	12000 W Washington Blvd, Los Angeles, CA 90066	(310) 915-9663	http://www.thewoodcafe.com	-118.4220635	33.997442
590	New Frontier Espresso Bar Catering Service	12021 Wilshire Blvd, Los Angeles, CA 90025	(800) 949-5282	http://www.nfcoffee.com	-118.4660217	34.0456112
591	Groundwork Coffee Co	108 W 2nd St, Los Angeles, CA 90012	(213) 620-9668	http://www.lacoffee.com	-118.2448223	34.0510127
592	The Coffee Bean & Tea Leaf	6333 W 3rd St E-11, Los Angeles, CA 90036	(323) 857-0461	http://coffeebean.com	-118.3605725	34.0717892
593	The Coffee Bean & Tea Leaf	763 Americana Way, Glendale, CA 91210	(818) 242-6123	http://coffeebean.com	-118.2553811	34.1437482
594	Panini Cosmopolitan Cafe Inc	1553 Westwood Blvd, Los Angeles, CA 90024	(310) 477-0087	not found	-118.4402671	34.0531146
595	Etchea Cafe Bakery & Catering	254 S Hope St, Los Angeles, CA 90012	(213) 626-0157	http://www.etcheabakery.com	-118.2519898	34.0538269
596	Peet&#39s Coffee & Tea	3443 S Sepulveda Blvd Albertsons #6168 Grocery, Los Angeles, CA 90034	(310) 390-7857	http://www.peets.com	-118.395863	34.0324632
597	Leonel Coffee Shop	659 S Broadway, Los Angeles, CA 90014	(213) 955-5917	not found	-118.2533396	34.0455483
598	Gourmet Coffee	515 S Flower St, Los Angeles, CA 90071	(213) 612-0386	not found	-118.2567698	34.0514139
599	Peet&#39s Coffee & Tea	8330 Santa Monica Blvd Gelson&#39s #108 Grocery, West Hollywood, CA 90069	(323) 656-5580	http://www.peets.com	-118.3783347	34.0931603
600	Paradocs Coffee & Tea	1032 S Fairfax Ave, Los Angeles, CA 90019	(323) 965-2158	http://www.peets.com	-118.3640389	34.0571613
601	C&M Cafe	3272 Motor Ave # A, Los Angeles, CA 90034	(310) 694-1516	http://www.cmcafela.com	-118.4107142	34.0298033
602	Hansol Lunchbox	2520 W 8th St, Los Angeles, CA 90057	(213) 487-3550	http://www.hansoldosirak.com	-118.2831183	34.0568041
603	Organic Cafe	2221 Rogers Ave, Los Angeles, CA 90023	(323) 981-9624	not found	-118.2171956	34.0360725
604	Go Get Em Tiger Pop-Up	2630 Hyperion Ave, Los Angeles, CA 90027	(510) 789-8846	http://ggetla.com	-118.2722469	34.1061997
605	Tank&#39s Coffee Shop & Eatery	5737 Venice Blvd, Los Angeles, CA 90019	(323) 931-0866	not found	-118.363233	34.043562
606	Clarence Daniels	600 World Way, Los Angeles, CA 90045	(310) 645-0515	not found	-118.4021501	33.9416068
607	Mangia Mangia Caffe	505 S Flower St Ste B020A, Los Angeles, CA 90071	(213) 683-1122	http://mangiamangia.com	-118.2566062	34.0514473
608	Market Place Restaurant	1102 Lawrence St, Los Angeles, CA 90021	(213) 622-7285	http://www.marketplacerestaurantla.com	-118.236403	34.0304191
609	Starbucks Coffee	906 Goodrich Blvd, Commerce, CA 90022	(323) 725-1402	http://www.starbucks.com	-118.1536089	34.0190633
610	Venice Grind	12224 Venice Blvd, Los Angeles, CA 90066	(310) 397-2227	not found	-118.4318389	34.004261
611	Lee Meesun	3109 W Olympic Blvd, Los Angeles, CA 90006	(213) 637-2375	not found	-118.3035369	34.0529015
612	Goe Cafe	6300 Wilshire Blvd, Los Angeles, CA 90048	(323) 951-0989	not found	-118.366019	34.0632115
613	Betty&#39s Diner	2819 N Broadway, Los Angeles, CA 90031	(323) 226-0728	not found	-118.2123934	34.0739923
614	Heirloom Bakery & Cafe	807 Meridian Ave, South Pasadena, CA 91030	(626) 441-0042	http://www.toolproject.com/heirloom	-118.1573129	34.1161706
615	Starbucks Coffee	4520 W Sunset Blvd, Los Angeles, CA 90027	(323) 662-8107	http://www.starbucks.com	-118.2879838	34.0970678
616	Pann&#39s Restaurant	6710 La Tijera Blvd, Los Angeles, CA 90045	(323) 776-3770	http://www.panns.com	-118.3705802	33.978076
617	Big Fat Pita	10250 Santa Monica Blvd # Fc4, Los Angeles, CA 90067	(310) 282-8500	http://www.bigfatpita.com	-118.4194176	34.0596101
618	Twins coffee & virgin cocktails	8410 w sunset blvd, West hollywood, CA 90069	(323) 286-1746	http://www.twinslosangeles.com	-118.3730858	34.0949705
619	Starbucks Coffee	3853 E 3rd St, Los Angeles, CA 90063	(323) 265-4124	http://www.starbucks.com	-118.1843477	34.0336251
620	Peet&#39s Coffee & Tea	1233 N La Brea Ave, West Hollywood, CA 90038	(323) 876-8790	http://www.peets.com	-118.3445101	34.0935184
621	Starbucks Coffee	6101 W Century Blvd, Los Angeles, CA 90045	(310) 642-1111	http://www.starbucks.com	-118.3908633	33.9464561
622	Valley Tea & Coffee	1101 W Valley Blvd Ste 103, Alhambra, CA 91803	(626) 281-5799	not found	-118.1348909	34.0781843
623	Corner Bakery Cafe	1019 Westwood Blvd, Los Angeles, CA 90024	(310) 824-1314	http://www.cornerbakerycafe.com	-118.445716	34.062181
624	Starbucks Coffee	5201 E Washington Blvd, Commerce, CA 90040	(323) 981-0029	http://www.starbucks.com	-118.1670995	34.0030615
625	Bru Coffee Bar	1866 N Vermont Ave, Los Angeles, CA 90027	(323) 664-7500	http://brucoffeebar.com	-118.2915327	34.104947
626	Charlie&#39s Trio	5769 Huntington Dr N, Los Angeles, CA 90032	(323) 223-3871	http://www.charliestrio.com	-118.1556597	34.0984612
627	Pat & Lorraines Coffee Shop	4720 Eagle Rock Blvd, Los Angeles, CA 90041	(323) 257-7926	not found	-118.2164562	34.1307935
628	Yum-Yum Donuts	3103 N San Fernando Rd, Los Angeles, CA 90065	(323) 256-9412	http://www.yumyumdonuts.com	-118.2455276	34.1153327
629	Bliss Art House Cafe	1249 Vine St, Los Angeles, CA 90038	(323) 962-2986	http://blissing.com/cafe.html	-118.326975	34.0938659
630	The Coffee Bean & Tea Leaf	3726 S Figueroa St, Los Angeles, CA 90007	(213) 745-4963	http://coffeebean.com	-118.2824292	34.0172319
631	Massimo&#39s Mud Spot	759 S La Brea Ave, Los Angeles, CA 90036	(323) 936-0547	not found	-118.3448431	34.0606616
632	Yum-Yum Donuts	1935 E Florence Ave, Los Angeles, CA 90001	(323) 588-1154	http://www.yumyumdonuts.com	-118.238042	33.9750894
633	Chung King Cafe	4578 Whittier Blvd, Los Angeles, CA 90022	(323) 263-8313	not found	-118.1684359	34.0225989
634	Peet&#39s Coffee & Tea	1154 Westwood Blvd, Los Angeles, CA 90024	(310) 954-8191	http://www.peets.com	-118.4445426	34.0598314
635	Primera Taza Coffee House	3310 S Central Ave, Los Angeles, CA 90011	(323) 231-7437	not found	-118.256385	34.0133591
636	Yum-Yum Donuts	1455 S Atlantic Blvd, Los Angeles, CA 90022	(323) 267-8540	http://www.yumyumdonuts.com	-118.1595001	34.0112508
637	Peet&#39s Coffee & Tea	10861 Weyburn Ave Target #2774 Grocery, Los Angeles, CA 90024	(323) 586-1880	http://www.peets.com	-118.4367551	34.0631451
638	L.A. Cafe	639 S Spring St, Los Angeles, CA 90014	(213) 612-3000	http://www.lacafe.com	-118.2521285	34.0451768
639	Toast Bakery Cafe	8221 W 3rd St, Los Angeles, CA 90048	(323) 655-5018	http://www.toastbakerycafe.net	-118.3688071	34.0727688
640	House of Boba	5930 S Main St Ste 102, Los Angeles, CA 90003	(323) 238-0257	not found	-118.273533	33.9864606
641	Starbucks Coffee	5933 W Century Blvd, Los Angeles, CA 90045	(310) 568-7730	http://www.starbucks.com	-118.387324	33.946128
642	Brew You	808 S Western Ave, Los Angeles, CA 90005	(213) 382-0305	not found	-118.308637	34.0570204
643	The Coffee Bean & Tea Leaf	6255 W Sunset Blvd Suite 170, Los Angeles, CA 90028	(323) 962-7078	http://coffeebean.com	-118.3254514	34.0982804
644	The Coffee Bean & Tea Leaf	5700 Wilshire Blvd, Los Angeles, CA 90036	(323) 931-4948	http://coffeebean.com	-118.3535426	34.0617449
645	Starbucks Coffee	1875 Century Park E, Los Angeles, CA 90067	(310) 553-8226	http://www.starbucks.com	-118.4147874	34.0608183
646	Zweet Cafe	4682 Eagle Rock Blvd, Los Angeles, CA 90041	(323) 305-4038	http://www.zweetcafe.com	-118.2168118	34.12958
647	Green Apple Market	300 E 5th St, Los Angeles, CA 90013	(213) 817-6066	not found	-118.2457163	34.0445874
648	Peet&#39s Coffee & Tea	3118 S Sepulveda Blvd Vons #2077 Grocery, Los Angeles, CA 90034	(310) 477-8717	http://www.peets.com	-118.395863	34.0324632
649	Design Cafe	8687 Melrose Ave, West Hollywood, CA 90069	(310) 657-0343	http://foodlab-la.com	-118.3823838	34.082157
650	Super Donut House	7307 W Sunset Blvd, Los Angeles, CA 90046	(323) 436-6268	not found	-118.3493303	34.0983408
651	Eat Well	1013 S Brand Blvd, Glendale, CA 91205	(818) 243-5928	not found	-118.2552051	34.133948
652	Mrs G	6801 Hollywood Blvd # 209, Los Angeles, CA 90028	(323) 463-2086	not found	-118.3399805	34.1026077
653	Chavez Cafe	2028 E 7th St, Los Angeles, CA 90021	(213) 627-7049	not found	-118.2313312	34.0345683
654	Kellys Coffee & Fudge Factory	5701 S Eastern Ave, Commerce, CA 90040	(323) 887-0565	http://www.kellyscoffee.com	-118.1619132	33.9873576
655	Winchell&#39s Donuts	1455 S Atlantic Blvd, Los Angeles, CA 90022	(323) 267-8540	http://www.winchells.com	-118.1595001	34.0112508
656	Starbucks Coffee	12404 Venice Blvd, Los Angeles, CA 90066	(310) 390-2354	http://www.starbucks.com	-118.4336978	34.0031092
657	Klatch Coffee	700 World Way, Los Angeles, CA 90045	(424) 702-1141	http://www.klatchroasting.com/Klatch_LAX_s/301.htm	-118.4013612	33.9430214
658	Cafecito Organico	534 N Hoover St, Los Angeles, CA 90004	(213) 537-8367	http://www.cafecitoorganico.com	-118.284274	34.0804579
659	The Coffee Bean & Tea Leaf	10401 Santa Monica Blvd, Los Angeles, CA 90025	(310) 234-8411	http://coffeebean.com	-118.424526	34.057687
660	The Coffee Bean & Tea Leaf	800 World Way, Los Angeles, CA 90045	(310) 846-5830	http://coffeebean.com	-118.398137	33.943358
661	Hollywood Coffee Inc	6464 W Sunset Blvd Lbby 1, Los Angeles, CA 90028	(323) 962-7700	http://www.starbucks.com	-118.325739	34.1012181
662	Penny&#39s Cafe	2734 N Eastern Ave, Los Angeles, CA 90032	(323) 222-0922	not found	-118.177742	34.07868
663	Peet&#39s Coffee & Tea	8701 Lincoln Blvd Ralph&#39s #0278 Grocery, Los Angeles, CA 90045	(310) 649-1526	http://www.peets.com	-118.3875775	33.9516114
664	Corner Bakery Cafe	801 S Figueroa St, Los Angeles, CA 90017	(213) 239-0424	http://www.cornerbakerycafe.com	-118.261792	34.0478511
665	Groundwork Coffee	139 1/2 N Larchmont Blvd, Los Angeles, CA 90004	(323) 871-8930	not found	-118.3239724	34.074181
666	Nel & John Belizean	3567 S Western Ave, Los Angeles, CA 90018	(323) 732-6603	http://belizeans.com	-118.3091934	34.0232254
667	Black Dog Coffee	5657 Wilshire Blvd Ste 150, Los Angeles, CA 90036	(323) 933-1976	http://www.blackdogcoffee.com	-118.3518152	34.062811
668	Peet&#39s Coffee & Tea	2901 Los Feliz Blvd Costco Warehouse 130 - Los Feliz Grocery, Los Angeles, CA 90039	(323) 644-5201	http://www.peets.com	-118.2585096	34.1103407
669	Sal&#39s	7356 Melrose Ave, Los Angeles, CA 90046	(323) 651-3822	not found	-118.3501171	34.0835579
670	Starbucks Coffee	6801 Hollywood Blvd, Los Angeles, CA 90028	(323) 962-7414	http://www.starbucks.com	-118.3399805	34.1026077
671	Le Pain Quotidien	11702 Barrington Ct, Los Angeles, CA 90049	(310) 476-0969	http://www.lepainquotidien.us	-118.4693784	34.0644108
672	Yum-Yum Donuts	1834 Marengo St, Los Angeles, CA 90033	(323) 226-9321	http://www.yumyumdonuts.com	-118.2108979	34.0576871
673	Ampersand Capital Corp	608 Americana Way, Glendale, CA 91210	(818) 502-1233	not found	-118.256354	34.1443918
674	Drnk Coffe + Tea	6430 W Sunset Blvd, Los Angeles, CA 90028	(323) 825-5385	not found	-118.3302099	34.0977563
675	The Coffee Bean & Tea Leaf	670 S Western Ave, Los Angeles, CA 90005	(213) 388-9763	http://coffeebean.com	-118.3085512	34.0601107
676	Alcove Cafe & Bakery	1929 Hillhurst Ave, Los Angeles, CA 90027	(323) 644-0100	http://www.alcovecafe.com	-118.2877515	34.1063127
677	Kelly&#39s Cafe	606 S Olive St Ste 101, Los Angeles, CA 90014	(213) 683-0770	not found	-118.254126	34.0476812
678	Los Feliz Cafe	3207 Los Feliz Blvd, Los Angeles, CA 90039	(323) 661-2355	http://www.losfelizcafe.com	-118.2693727	34.1233353
679	The Coffee Bean & Tea Leaf	3435 Wilshire Blvd Suite 141, Los Angeles, CA 90010	(213) 608-0464	http://coffeebean.com	-118.2985086	34.0622581
680	California Dining Airport Cafe	1 World Way, Los Angeles, CA 90045	(310) 215-5469	not found	-118.4027946	33.94224
681	I Love Sweetea	318 S La Brea Ave, Los Angeles, CA 90036	(323) 561-7100	http://www.ilovesweetea.com	-118.343744	34.0683074
682	New Frontier Coffee	5890 Blackwelder St, Culver City, CA 90232	(310) 839-3423	http://www.nfcoffee.com	-118.3737541	34.03066
683	Starbucks Coffee	7122 Beverly Blvd, Los Angeles, CA 90036	(323) 939-1793	http://www.starbucks.com	-118.3448709	34.0757171
684	Starbucks Coffee	8844 S Sepulveda Blvd, Los Angeles, CA 90045	(310) 645-0416	http://www.starbucks.com	-118.3956601	33.956117
685	Boba Time	701 S Vermont Ave, Los Angeles, CA 90005	(213) 386-2622	http://www.itsbobatime.com	-118.2917031	34.0597399
686	Boba Loca Tea & Coffee	3617 S Vermont Ave, Los Angeles, CA 90007	(562) 944-5181	http://www.bobaloca.com/USC_Boba_Loca_s/1836.htm	-118.291623	34.022666
687	A Votre Sante	13016 San Vicente Blvd, Los Angeles, CA 90049	(310) 451-1813	http://www.avotresantela.com	-118.4903706	34.0484212
688	Intelligentsia Coffee	2737 N San Fernando Rd, Los Angeles, CA 90065	(323) 275-4933	http://www.intelligentsiacoffee.com	-118.242462	34.110391
689	Coral Tree Express	10250 Santa Monica Blvd, Los Angeles, CA 90067	(310) 553-8733	http://www.coraltreecafe.com	-118.4194176	34.0596101
690	Peet&#39s Coffee & Tea	11750 Wilshire Blvd Pavilions #2213 Grocery, Los Angeles, CA 90025	(310) 479-5294	http://www.peets.com	-118.4484367	34.0448583
691	3sg Ventures Inc	888 N Garfield Ave, Montebello, CA 90640	(323) 477-1233	not found	-118.129434	34.032289
692	Tak&#39s Coffee Shop	3870 Crenshaw Blvd, Los Angeles, CA 90008	(323) 295-0195	not found	-118.3347275	34.0153422
693	Yum-Yum Donuts	9 S Fremont Ave, Alhambra, CA 91801	(626) 576-9775	http://www.yumyumdonuts.com	-118.1522473	34.0947514
694	Cayenne Cafe	7169 Beverly Blvd, Los Angeles, CA 90036	(323) 857-1252	http://www.cayennecafe.com	-118.3458897	34.0763995
695	Peet&#39s Coffee & Tea	11727 W Olympic Blvd Ralph&#39s #0210 Grocery, Los Angeles, CA 90064	(310) 473-5238	http://www.peets.com	-118.4221519	34.0386656
696	Espresso Primo Inc.	5890 Blackwelder St, Culver City, CA 90232	(310) 839-3061	http://espresso-la.com	-118.3737541	34.03066
697	Yum-Yum Donuts	724 N Highland Ave, Los Angeles, CA 90038	(323) 462-9067	http://www.yumyumdonuts.com	-118.3383676	34.0841923
698	Starbucks Coffee	8700 Beverly Blvd, West Hollywood, CA 90048	(310) 423-6664	http://www.starbucks.com	-118.3814551	34.0763782
699	The Coffee Bean & Tea Leaf	10401 Venice Blvd, Los Angeles, CA 90034	(310) 842-9330	http://coffeebean.com	-118.4045137	34.0206007
700	Starbucks Coffee	100 Citadel Dr Suite 200, Commerce, CA 90040	(323) 888-2153	http://www.starbucks.com	-118.152828	34.0059528
701	Winchell&#39s Donuts	6101 Pacific Blvd, Huntington Park, CA 90255	(323) 277-9874	http://www.winchells.com	-118.2254875	33.9852761
702	Ganayng Cafe	970 N Western AVE, Los Angeles, CA 90029	(323) 461-3322	not found	-118.308962	34.0880681
703	Brew Coffee Bar	6430 W Sunset Blvd, Los Angeles, CA 90028	(323) 464-1306	not found	-118.3302099	34.0977563
704	Granville Cafe	807 Americana Way, Glendale, CA 91210	(818) 550-0472	http://www.granvillecafe.com	-118.2553372	34.1451102
705	Mauro&#39s Restaurant	8112 Melrose Ave, Los Angeles, CA 90046	(323) 653-7970	http://www.mauroscafe.com	-118.366486	34.083476
706	Transcendent Cafe	10893 W Pico Blvd, Los Angeles, CA 90064	(310) 446-1965	not found	-118.4294617	34.0398923
707	Gelato Bar & Espresso Cafe	1936 Hillhurst Ave, Los Angeles, CA 90027	(323) 668-0606	http://www.gelatobarla.com	-118.287063	34.106561
708	Peet&#39s Coffee & Tea	2600 S Vermont Ave, Los Angeles, CA 90007	(323) 732-3863	http://www.peets.com	-118.2915383	34.0327281
709	Cafe Glace	1441 Westwood Blvd, Los Angeles, CA 90024	(310) 478-8080	http://www.cafe-glace.com	-118.4413104	34.0544902
710	Yumcha Cafe	421 N Atlantic Blvd, Monterey Park, CA 91754	(626) 289-6287	http://www.yumchacafe.com	-118.134824	34.0673559
711	Starbucks Coffee	454 Fair Oaks Ave, South Pasadena, CA 91030	(626) 441-7354	http://www.starbucks.com	-118.1499397	34.1199567
712	Savyon	5158 Hollywood Blvd, Los Angeles, CA 90027	(323) 522-6261	not found	-118.3026061	34.1016394
713	Teavana	10800 W Pico Blvd #135, Los Angeles, CA 90064	(310) 474-0127	http://www.teavana.com	-118.4274689	34.0401391
714	Balconi Coffee Company	11301 W Olympic Blvd #124, Los Angeles, CA 90064	(310) 906-0267	http://balconicoffee.com	-118.4418145	34.0385854
715	Schwartz Bakery	433 N Fairfax Ave, Los Angeles, CA 90036	(323) 653-1683	http://schwartzbakery.net	-118.3614547	34.0791662
716	Starbucks Coffee	11280 W Olympic Blvd, Los Angeles, CA 90064	(310) 478-0045	http://www.starbucks.com	-118.4408878	34.0381014
717	Tom & Tom&#39s Pasadena	285 E Green St, Pasadena, CA 91101	(626) 585-1340	not found	-118.1444232	34.1446984
718	Nature&#39s Brew	2316 S Union Ave, Los Angeles, CA 90007	(213) 741-9393	http://www.naturesbrewcafe.com	-118.283559	34.0342569
719	Diner On Main	201 W Main St, Alhambra, CA 91801	(626) 281-3488	http://www.dineronmainrestaurant.net	-118.1292974	34.0942666
720	Peet&#39s Coffee & Tea	5429 Hollywood Blvd, Los Angeles, CA 90027	(323) 957-9657	http://www.peets.com	-118.3082439	34.1019696
721	Sacp	5183 Hollywood Blvd, Los Angeles, CA 90027	(323) 665-1035	http://sapp.menutoeat.com	-118.3032479	34.1018668
722	The Sayers Club	1645 Wilcox Ave, Los Angeles, CA 90028	(323) 871-8416	http://www.sbe.com/thesayersclub	-118.3312899	34.1011908
723	Cafe Don Juan	305 E 9th St, Los Angeles, CA 90015	(213) 265-7377	not found	-118.252559	34.040069
724	Pinery Coffee House	2528 W Olympic Blvd, Los Angeles, CA 90006	(213) 387-5447	not found	-118.2848262	34.0522286
725	Starbucks Coffee	8969 Santa Monica Blvd, West Hollywood, CA 90069	(310) 595-1737	http://www.starbucks.com	-118.3868974	34.0832919
726	Ground Zero Performance Cafe	615 Childs Way, Los Angeles, CA 90089	(213) 821-1484	http://www.usc.edu/student-affairs/gzcoffee	-118.2821449	34.0194859
727	La Boulange	359 S La Brea Ave, Los Angeles, CA 90036	(323) 525-0164	http://laboulangeallday.com	-118.3442823	34.067086
728	Le Pain Quotidien	8607 Melrose Ave, West Hollywood, CA 90069	(310) 854-3700	http://www.lepainquotidien.us	-118.3799229	34.0821406
729	The Coffee Bean & Tea Leaf	135 N Larchmont Blvd, Los Angeles, CA 90004	(323) 469-4984	http://coffeebean.com	-118.3239926	34.0740434
730	Cafe Take 5	328 E 1st St, Los Angeles, CA 90012	(213) 621-3004	http://www.cafetake5.com	-118.2402369	34.0496734
731	Starbucks Coffee	1360 E Colorado St, Glendale, CA 91205	(818) 240-1387	http://www.starbucks.com	-118.2350912	34.1424312
732	Yum-Yum Donuts	5836 W Manchester Ave, Los Angeles, CA 90045	(310) 216-4278	http://www.yumyumdonuts.com	-118.3841143	33.9595591
733	Flor De Cafe Bakery	537 E Colorado St, Glendale, CA 91205	(818) 543-1401	not found	-118.2483714	34.1429089
734	Bedikian Zohrab	210 W Temple St, Los Angeles, CA 90012	(213) 629-8326	not found	-118.2432169	34.0550082
735	Taha Cafe	12340 Santa Monica Blvd, Los Angeles, CA 90025	(310) 826-6699	not found	-118.4662134	34.0390188
736	Mornings Night	1523 Griffith Park Blvd, Los Angeles, CA 90026	(323) 664-8811	http://www.morningsnights.com	-118.2772713	34.0906006
737	Miss Donuts	2520 S Robertson Blvd, Los Angeles, CA 90034	(310) 253-9925	not found	-118.3881483	34.0384019
738	Little Bean Cafe	3250 W Olympic Blvd, Los Angeles, CA 90006	(323) 730-1888	http://littlebeanscafe.com	-118.3085165	34.0522327
739	Caffe Delizioso	4727 Wilshire Blvd, Los Angeles, CA 90010	(323) 935-6639	http://www.caffedelizioso.com	-118.332625	34.062303
740	Starbucks Coffee	7311 N Figueroa St, Los Angeles, CA 90041	(323) 254-5716	http://www.starbucks.com	-118.1884629	34.1363888
741	Cosmo USA Cafe	555 W 5th St, Los Angeles, CA 90013	(213) 488-0913	not found	-118.2531767	34.050075
742	The Coffee Bean & Tea Leaf	700 Fair Oaks Ave, South Pasadena, CA 91030	(626) 403-2141	http://coffeebean.com	-118.1500834	34.1181197
743	Net Caffe	624 e Colorado St. Unit B, Glendale, CA 91205	(818) 546-1504	http://www.facebook.com/NetCaffeMaryland	-118.2472102	34.1424289
744	Mon Amour Cafe	927 Broxton Ave, Los Angeles, CA 90024	(310) 824-7980	http://www.monamourcafewestwood.com	-118.4470711	34.0633428
745	Il Macchiato Cafe	312 W 5th St, Los Angeles, CA 90013	(213) 488-1326	http://www.ilmacchiatocafedtwnla.com	-118.251243	34.0481247
746	Noah&#39s New York Bagels	10910 Lindbrook Dr, Los Angeles, CA 90024	(310) 209-8177	http://www.noahs.com	-118.4450353	34.0592693
747	Richie&#39s Cafe	965 N Vignes St Ste 6, Los Angeles, CA 90012	(213) 626-7010	not found	-118.2322606	34.0582561
748	Cube Marketplace & Cafe	615 N La Brea Ave, Los Angeles, CA 90036	(323) 939-1148	not found	-118.3443106	34.0823383
749	The Coffee Bean & Tea Leaf	1 World Way, Los Angeles, CA 90045	(310) 215-4214	http://coffeebean.com	-118.4027946	33.94224
750	Winchell&#39s Donuts	2548 Glendale Blvd, Los Angeles, CA 90039	(323) 669-9562	http://www.winchells.com	-118.2585433	34.1036784
751	Valerie Echo Park	1665 Echo Park Ave, Los Angeles, CA 90026	(213) 250-9365	http://valerieconfections.com	-118.254705	34.0834
752	El Gallo Cafe	4545 E Cesar E Chavez Ave, Los Angeles, CA 90022	(323) 263-4545	http://elgallocafe.com	-118.167752	34.0408479
753	Olympic Donuts	4773 E Cesar E Chavez Ave, Los Angeles, CA 90022	(323) 263-4670	http://beijing-olympic.org.cn	-118.162352	34.0407649
754	LA Cafe	1145 E Chevy Chase Dr, Glendale, CA 91205	(818) 956-0732	not found	-118.2400983	34.1347591
755	Starbucks Coffee	7901 Santa Monica Blvd Santa Monica & Fairfax, West Hollywood, CA 90046	(323) 822-9733	http://www.starbucks.com	-118.3785832	34.0882114
756	Brown Cherry	3552 W Martin Luther King Jr Blvd, Los Angeles, CA 90008	(323) 299-9165	not found	-118.334505	34.01066
757	Mountain Cafe	3064 W 8th St, Los Angeles, CA 90005	(213) 487-7615	not found	-118.2938165	34.0574941
758	Starbucks Coffee	7257 W Sunset Blvd, Los Angeles, CA 90046	(323) 512-8382	http://www.starbucks.com	-118.3484233	34.0984882
759	Erudite Entrepreneur	6701 Hollywood Blvd, Los Angeles, CA 90028	(323) 468-8026	not found	-118.3362594	34.101925
760	Essence Coffee	3458 1/2 Wilshire Blvd, Los Angeles, CA 90010	(213) 382-2142	not found	-118.29973	34.0613621
761	Starbucks Coffee	8985 Venice Blvd Ste C2A, Los Angeles, CA 90034	(310) 558-0407	http://www.starbucks.com	-118.3921355	34.0279434
762	Lollicup	2337 S Garfield Ave, Monterey Park, CA 91754	(323) 727-2622	http://www.lollicup.com	-118.1307434	34.0355933
763	The Classic Brew	862 S Main St, Los Angeles, CA 90014	(213) 265-7549	not found	-118.254687	34.041522
764	Watts Coffee House	1827 E 103rd St, Los Angeles, CA 90002	(323) 249-4343	not found	-118.2403705	33.9431968
765	Winchell&#39s Donuts	697 S Hoover St, Los Angeles, CA 90005	(213) 480-8416	http://www.winchells.com	-118.2868943	34.0125601
766	Mounai Cafe	6603 Hollywood Blvd, Los Angeles, CA 90028	(323) 461-3088	http://mounaihollywood.com	-118.3335938	34.1018277
767	Gavina Gourmet Coffee	2700 Fruitland Ave, Vernon, CA 90058	(323) 582-0671	http://www.gavina.com	-118.2230447	33.9959342
768	Emma Cafe	3003 W Olympic Blvd, Los Angeles, CA 90006	(213) 389-4966	not found	-118.3006189	34.0529507
769	Starbucks Coffee	2134 W Sunset Blvd, Los Angeles, CA 90026	(213) 413-9612	http://www.starbucks.com	-118.2647632	34.0771367
770	Peet&#39s Coffee & Tea	1135 N Mansfield Ave Yummy Foods #1 Grocery, Los Angeles, CA 90038	(323) 876-1600	http://www.peets.com	-118.3315838	34.0895186
771	LaSarsala Coffee Shop And Deli	346 N Ford Blvd, Los Angeles, CA 90022	(323) 526-4999	not found	-118.1690347	34.0400567
772	Coffee Bar	600 S Spring St # R1, Los Angeles, CA 90014	(213) 327-1157	http://coffeebar.com	-118.2509444	34.0454887
773	National Kiosk Coffee Inc	754 Wall St, Los Angeles, CA 90014	(213) 614-6885	not found	-118.2496099	34.0404728
774	Cafe Stella	3932 W Sunset Blvd, Los Angeles, CA 90029	(323) 666-0265	http://www.cafestella.com	-118.2799789	34.0920225
775	City Bean	10911 Lindbrook Dr, Los Angeles, CA 90024	(310) 208-0108	http://www.citybean.com	-118.4450597	34.0597822
776	Syrup Desserts	611 S Spring St, Los Angeles, CA 90014	(213) 488-5136	http://www.twitter.com/syrupdesserts	-118.2514695	34.045783
777	Starbucks Coffee	3344 S La Cienega Blvd, Los Angeles, CA 90016	(323) 938-0821	http://www.starbucks.com	-118.3717802	34.0268649
778	Sk&#39s Donuts & Croisants	5850 W 3rd St Ste D, Los Angeles, CA 90036	(323) 935-2409	http://skdonut.com	-118.347523	34.0689072
779	Peet&#39s Coffee & Tea	606 Fair Oaks Ave Bristol Farms South Pasadena #2 Wpb, South Pasadena, CA 91030	(626) 441-5456	http://www.peets.com	-118.1503488	34.1161196
780	Hart&#39s Cafe	6655 Hollywood Blvd, Los Angeles, CA 90028	(323) 465-9973	http://hartscafehollywood.com	-118.334948	34.1017935
781	Gateway Cafe	1801 Avenue Of The Stars Ste B1, Los Angeles, CA 90067	(310) 551-0051	not found	-118.4184373	34.0602413
782	Starbucks Coffee	2919 Los Feliz Blvd, Los Angeles, CA 90039	(323) 665-1347	http://www.starbucks.com	-118.2633813	34.1265987
783	The Coffee Bean & Tea Leaf	8735 Santa Monica Blvd, West Hollywood, CA 90069	(310) 659-8207	http://coffeebean.com	-118.3814151	34.0870426
784	Park View Street Cafe	1056 S Park View St, Los Angeles, CA 90006	(213) 380-1056	not found	-118.2836704	34.0518799
785	Apffels Gourmet Coffee	1900 E 25th St, Vernon, CA 90058	(323) 846-5500	not found	-118.2370274	34.0144067
786	Peet&#39s Coffee & Tea	7257 W Sunset Blvd Ralph&#39s #0100 Grocery, Los Angeles, CA 90046	(310) 512-8382	http://www.peets.com	-118.3637264	34.1147313
787	The Coffee Bean & Tea Leaf	3607 Trousdale Pkwy, Los Angeles, CA 90089	(213) 821-3482	http://coffeebean.com	-118.2859915	34.020457
788	The Coffee Bean & Tea Leaf	415 S Lake Ave , Suite 108, Pasadena, CA 91101	(626) 744-9370	http://coffeebean.com	-118.1323887	34.1395549
789	Cafe Don Quixote	192 S Vermont Ave, Los Angeles, CA 90004	(213) 388-5066	not found	-118.2916402	34.0705434
790	The Coffee Bean & Tea Leaf	8793 Beverly Blvd, West Hollywood, CA 90048	(310) 659-4592	http://coffeebean.com	-118.3835936	34.0774143
791	Novel Cafe	811 Traction Ave, Los Angeles, CA 90013	(213) 621-2448	not found	-118.235313	34.0452579
792	Peet&#39s Coffee & Tea	4030 S Centinela Ave Vons #2270 Grocery, Los Angeles, CA 90066	(310) 391-1503	http://www.peets.com	-118.4338345	34.0050173
793	Starbucks Coffee	12746 W Jefferson Blvd 2150, Los Angeles, CA 90066	(213) 393-2572	http://www.starbucks.com	-118.41733	33.9770913
794	Jajung Guh	4653 Beverly Blvd, Los Angeles, CA 90004	(323) 957-1225	not found	-118.3110238	34.0765673
795	Starbucks Coffee	9616 W Pico Blvd, Los Angeles, CA 90035	(310) 271-2672	http://www.starbucks.com	-118.3978688	34.0550232
796	Sapp Coffee Shop	5183 Hollywood Blvd, Los Angeles, CA 90027	(323) 665-1035	http://www.sapp.menutoeat.com	-118.3032479	34.1018668
797	Coffee Commissary	801 N Fairfax Ave, Los Angeles, CA 90046	(323) 782-1465	http://www.coffeecommissary.com	-118.3618391	34.0858803
798	Yum-Yum Donuts	716 N Western Ave, Los Angeles, CA 90029	(323) 467-0044	http://www.yumyumdonuts.com	-118.3089547	34.0840622
799	Starbucks Coffee	8949 Santa Monica Blvd, West Hollywood, CA 90069	(310) 274-1074	http://www.starbucks.com	-118.3856451	34.0842291
800	J&#39s Prime Grind	714 W 1st St, Los Angeles, CA 90012	(213) 626-1900	not found	-118.2503784	34.0567024
801	Ludwigs	1300 W Olympic Blvd, Los Angeles, CA 90015	(213) 908-5112	not found	-118.2705842	34.0472838
802	Yum-Yum Donuts	1931 E Florence Ave, Los Angeles, CA 90001	(323) 588-1154	http://www.yumyumdonuts.com	-118.238366	33.9747426
803	America&#39s Cafe And Bakery	3654 Slauson Ave, Maywood, CA 90270	(323) 582-1587	not found	-118.198913	33.9882478
804	Gavina F & Sons Inc	2700 Fruitland Ave, Vernon, CA 90058	(323) 582-0671	http://www.gavina.com	-118.2230447	33.9959342
805	Cafe Spot	3324 W 6th St Ste 1C, Los Angeles, CA 90020	(213) 380-7200	not found	-118.2950261	34.0631997
806	Cafe B	3465 W 6th St, Los Angeles, CA 90020	(213) 365-1222	not found	-118.2972824	34.0637327
807	Winchell&#39s Donuts	2520 S Robertson Blvd, Los Angeles, CA 90034	(310) 558-9404	http://www.winchells.com	-118.3881483	34.0384019
808	Jhd Mid Wilshire	3435 Wilshire Blvd, Los Angeles, CA 90010	(310) 384-7277	http://www.blankspaces.com	-118.2985086	34.0622581
809	Espressos	11901 Santa Monica Blvd, Los Angeles, CA 90025	(310) 479-4533	http://www.8espressos.com	-118.4609639	34.0421011
810	W 27th St Cafe	2700 S Figueroa St Unit 103, Los Angeles, CA 90007	(213) 744-1545	not found	-118.2764453	34.0269101
811	Bourgeois Pig	5931 Franklin Ave, Los Angeles, CA 90028	(323) 464-6008	http://bourgeoispig.menutoeat.com	-118.3190158	34.1054126
812	Starbucks Coffee	2025 Avenue Of The Stars, Los Angeles, CA 90067	(310) 228-1234	http://www.starbucks.com	-118.4157329	34.0575055
813	Winchell&#39s Donuts	716 N Western Ave, Los Angeles, CA 90029	(323) 467-0044	http://www.winchells.com	-118.3089547	34.0840622
814	The Coffee Bean & Tea Leaf	2081 Hillhurst Ave, Los Angeles, CA 90027	(323) 913-3457	http://coffeebean.com	-118.2878521	34.109824
815	Red Moon Cafe	11267 National Blvd, Los Angeles, CA 90064	(310) 473-8451	not found	-118.4310043	34.026637
816	Kelly&#39s Coffee & Fudge Factory	10250 Santa Monica Blvd, Los Angeles, CA 90067	(310) 284-5705	http://www.kellyscoffee.com	-118.4194176	34.0596101
817	Highrise Cafe	404 S Figueroa St Ste 402, Los Angeles, CA 90071	(213) 624-6122	http://misinc.net	-118.2561946	34.0529106
818	The Coffee Bean & Tea Leaf	601 W 5th St, Los Angeles, CA 90071	(213) 689-8087	http://coffeebean.com	-118.2539876	34.0507777
819	Romey&#39s Cafe In The Heights	3510 N Broadway, Los Angeles, CA 90031	(323) 224-9964	http://www.cafeintheheights.webs.com	-118.2033736	34.073524
820	Starbucks Coffee	556 S Fair Oaks Ave, Pasadena, CA 91105	(626) 395-0626	http://www.starbucks.com	-118.150166	34.1363153
821	Yum-Yum Donuts	2601 Colorado Blvd, Los Angeles, CA 90041	(323) 257-5831	http://www.yumyumdonuts.com	-118.2230095	34.1424531
822	Winchell&#39s Donuts	3023 W Florence Ave, Los Angeles, CA 90043	(323) 751-7462	http://www.winchells.com	-118.3263944	33.9747395
823	Tom N Toms	333 S Alameda St, Los Angeles, CA 90013	(213) 625-7600	http://www.tomntoms.com	-118.2384922	34.0452743
824	The Coffee Bean & Tea Leaf	8601 Lincoln Blvd, Los Angeles, CA 90045	(310) 665-9814	http://coffeebean.com	-118.4199801	33.9590609
825	Mousse Fantasy & Beard Papas	2130 Sawtelle Blvd, Los Angeles, CA 90025	(310) 479-6665	not found	-118.4414953	34.0391901
826	Seattle&#39s Best Coffee	3335 S Figueroa St, Los Angeles, CA 90007	(213) 741-0691	http://www.seattlesbest.com	-118.2798382	34.0227992
827	Cafe Verona By Chef Owner Celestino	201 S La Brea Ave, Los Angeles, CA 90036	(323) 934-6188	http://www.cafeveronala.com	-118.3442721	34.0709093
828	Coffee Bar	500 World Way, Los Angeles, CA 90045	not found	not found	-118.40456	33.9413157
829	It&#39s Boba Time	3450 W 6th St, Los Angeles, CA 90020	(213) 365-2622	http://www.itsbobatime.com	-118.2966711	34.0635651
830	Tea & Cup	1158 Crocker St, Los Angeles, CA 90021	(213) 749-1429	not found	-118.2514522	34.0332951
831	Brew N Beans	11911 San Vicente Blvd Ste 148, Los Angeles, CA 90049	(310) 471-0240	not found	-118.4701593	34.0531564
832	The Coffee Bean & Tea Leaf	209 S Mednik Ave, Los Angeles, CA 90022	(323) 263-9317	http://coffeebean.com	-118.1620479	34.0349676
833	Post And Beam Restaurant	3767 Santa Rosalia Dr, Los Angeles, CA 90008	(323) 299-5599	http://www.postandbeamla.com	-118.339044	34.00986
834	Bellissimo Cafe	4771 Eagle Rock Blvd, Los Angeles, CA 90041	(323) 255-2233	http://www.bellissimocafe.com	-118.2162955	34.1319778
835	Foodcraft Coffee & Refreshments	1625 Riverside Dr, Los Angeles, CA 90031	(323) 223-2381	http://www.foodcraft.com	-118.240677	34.093656
836	Coffee Prince	807 E 12th St, Los Angeles, CA 90021	(213) 745-5031	not found	-118.2503247	34.0324297
838	Peet&#39s Coffee & Tea	727 Vine St Pavilions #2229 Grocery, Los Angeles, CA 90038	(323) 461-4167	http://www.peets.com	-118.3315838	34.0895186
839	Vicky&#39s Coffee Shop	410 W 7th St, Los Angeles, CA 90014	(213) 689-0018	not found	-118.2550663	34.0459417
840	Food Haus Cafe	2106 S Olive St, Los Angeles, CA 90007	(213) 741-0007	http://www.foodhauscafe.com	-118.268709	34.029909
841	The Coffee Bean & Tea Leaf	9541 W Pico Blvd, Los Angeles, CA 90035	(310) 282-9907	http://coffeebean.com	-118.396469	34.05556
842	Peet&#39s Coffee & Tea	11666 National Blvd Whole Foods; West La Grocery, Los Angeles, CA 90064	(310) 996-8840	http://www.peets.com	-118.4221519	34.0386656
843	Cafe Felix	799 Towne Ave, Los Angeles, CA 90021	(213) 623-7840	not found	-118.2476125	34.037675
844	Winchell&#39s Donuts	1457 E Florence Ave, Los Angeles, CA 90001	(323) 277-3255	http://www.winchells.com	-118.2482459	33.9751993
845	Ruby&#39s Diner	100 Citadel Dr, Commerce, CA 90040	(323) 382-7829	http://www.rubys.com	-118.152828	34.0059528
846	Dinosaur Coffee	4334 W. Sunset Blvd, Los Angeles, CA 90029	not found	http://www.dinosaurcoffee.com	-118.2838024	34.0952065
847	Foodlab	3206 W Sunset Blvd, Los Angeles, CA 90026	(323) 661-2666	http://foodlab-la.com	-118.2751224	34.0854355
848	Starbucks Coffee	11700 Barrington Ct, Los Angeles, CA 90049	(310) 472-7119	http://www.starbucks.com	-118.4693261	34.064474
849	The Coffee Bean & Tea Leaf	10250 Santa Monica Blvd # 9014, Los Angeles, CA 90067	(310) 557-8435	http://coffeebean.com	-118.4194176	34.0596101
850	Jessica Cafe	475 S Curson Ave, Los Angeles, CA 90036	(323) 930-2268	not found		
851	Intelligentsia Coffee	3922 W Sunset Blvd, Los Angeles, CA 90029	(323) 663-6173	http://www.intelligentsiacoffee.com	-118.2803654	34.0921238
852	Olympic Doughnuts	2337 E 4th St, Los Angeles, CA 90033	(323) 263-2365	not found	-118.2125484	34.0409691
853	Tom N Toms	3300 W 6th St Ste D, Los Angeles, CA 90020	(213) 427-9867	http://tomntoms.com	-118.2943457	34.063411
854	Caffe Barista	3600 Wilshire Blvd, Los Angeles, CA 90010	(213) 388-8837	not found	-118.3036388	34.0607067
855	Coopers Concessions and Cafe Srvcs	500 W Temple St, Los Angeles, CA 90012	(213) 629-8386	http://maidesigns.com/cooper/photo%20gallery.html	-118.246127	34.0567061
856	City Collage Cafe	710 N Heliotrope Dr, Los Angeles, CA 90029	(323) 664-0600	not found	-118.2946972	34.0839914
857	The Coffee Bean & Tea Leaf	801 W 7th St, Los Angeles, CA 90017	(213) 622-9748	http://coffeebean.com	-118.2588285	34.0489815
858	Charlie&#39s Coffee House	266 Monterey Rd Ste A, South Pasadena, CA 91030	(323) 474-6753	http://charliescoffeehouse.com	-118.1702257	34.1117492
859	Starbucks Coffee	8817 S Sepulveda Blvd, Los Angeles, CA 90045	(310) 342-0152	http://www.starbucks.com	-118.3964848	33.956788
860	The Coffee Bean & Tea Leaf	300 S La Cienega Blvd, Los Angeles, CA 90048	(310) 360-9777	http://coffeebean.com	-118.3761716	34.0729921
861	Yum-Yum Donuts	3351 Whittier Blvd, Los Angeles, CA 90023	(323) 267-8630	http://www.yumyumdonuts.com	-118.2012899	34.0281372
862	Starbucks Coffee	2215 Westwood Blvd, Los Angeles, CA 90064	(310) 441-9002	http://www.starbucks.com	-118.431642	34.0431744
863	Coffee Beanery	3666 S Soto St, Vernon, CA 90058	(323) 585-5551	http://www.coffeebeanery.com	-118.2196595	34.0091612
864	Peet&#39s Coffee & Tea	1050 Gayley Ave, Los Angeles, CA 90024	(909) 687-4658	http://www.peets.com	-118.4470792	34.0612344
865	Starbucks Coffee	1090 Wilshire Blvd, Los Angeles, CA 90017	(213) 250-8291	http://www.starbucks.com	-118.2632838	34.0519592
866	De Cafe Baristas	500 N Atlantic Blvd, Monterey Park, CA 91754	(626) 872-6302	not found	-118.1339631	34.0694725
867	Peet&#39s Coffee & Tea	2035 Hillhurst Ave Albertsons #6387 Grocery, Los Angeles, CA 90027	(323) 660-0687	http://www.peets.com	-118.2935891	34.1220545
868	Alex&#39s Deli & Coffee House	8920 Wilshire Blvd Ste 100, Beverly Hills, CA 90211	(310) 659-4022	not found	-118.3865184	34.0665626
869	Caffe Primo	612 S Flower St, Los Angeles, CA 90017	(213) 895-5012	http://www.iloveprimo.com	-118.257453	34.049543
870	Tapioca Express	11870 Santa Monica Blvd, Los Angeles, CA 90025	(310) 571-3229	http://www.tapiocaexpress.com	-118.4593706	34.0417367
871	Koala Tea Inc	10965 Weyburn Ave, Los Angeles, CA 90024	(310) 824-1500	not found	-118.4476723	34.0624922
872	Boba Ave	2089 S Atlantic Blvd Ste A, Monterey Park, CA 91754	(323) 981-8711	not found	-118.1435001	34.0402611
873	George&#39s Greek Cafe	445 S Figueroa St Ste 102, Los Angeles, CA 90071	(213) 627-2334	http://www.gerogesgreekcafela.com	-118.2570036	34.053263
874	The Coffee Bean & Tea Leaf	3415 S Figueroa St, Los Angeles, CA 90089	(213) 821-3482	http://coffeebean.com	-118.2812969	34.0204157
875	Caffe Paraggi	1888 Century Park E, Los Angeles, CA 90067	(310) 284-8555	http://www.caffeparaggi.com	-118.4139544	34.0611364
876	Bar Verde-Nordstrom The Grove	189 The Grove Dr, Los Angeles, CA 90036	(323) 900-1610	http://shop.nordstrom.com/c/nordstrom-restaurants?cm_mmc=dacgroup-_-llm-_-rest-_-21349	-118.3568692	34.0713424
877	The Coffee Bean & Tea Leaf	6922 Hollywood Blvd, Los Angeles, CA 90028	(323) 467-7785	http://coffeebean.com	-118.3408739	34.1012278
878	Starbucks Coffee	257 S La Cienega Blvd, Beverly Hills, CA 90211	(310) 659-9562	http://www.starbucks.com	-118.3764294	34.0635657
879	Casa Blanca Coffee Lounge	5718 Hollywood Blvd, Los Angeles, CA 90028	(323) 462-7500	http://www.cascof.com	-118.3142461	34.1015414
880	Edibles	1888 Century Park E Ste LL30, Los Angeles, CA 90067	(310) 556-2790	http://www.ediblescoffeeshop.com	-118.4139544	34.0611364
881	Pure & Natural Blands Cafe	3081 E Slauson Ave, Huntington Park, CA 90255	(323) 589-0875	not found	-118.213616	33.989499
882	Starbucks Coffee	10861 Weyburn Ave, Los Angeles, CA 90024	(310) 893-2360	http://www.starbucks.com	-118.4437229	34.0634835
883	Bottega Louie	700 S Grand Ave, Los Angeles, CA 90017	(213) 802-1470	http://www.bottegalouie.com	-118.2566807	34.0469319
884	City Bean	5051 W Jefferson Blvd, Los Angeles, CA 90016	(323) 734-0828	http://www.citybean.com	-118.35385	34.025757
885	Caffe Etc	6371 Selma Ave, Los Angeles, CA 90028	(323) 464-8824	http://www.caffeetc.com	-118.3292987	34.0998856
886	Corner Bakery Cafe	100 N La Cienega Blvd, Los Angeles, CA 90048	(310) 358-9146	http://www.cornerbakerycafe.com	-118.3761593	34.0750174
887	Xotic Cafe	1707 N Kenmore Ave, Los Angeles, CA 90027	(323) 661-0430	not found	-118.2974056	34.1021572
888	Marie&#39s Deli & Cafe	731 W 7th St, Los Angeles, CA 90017	(213) 622-5283	http://www.mariescoffeedeli.com	-118.2583051	34.0486407
889	Lee Hwan Jae	3224 W Olympic Blvd, Los Angeles, CA 90006	(323) 766-1022	not found	-118.3069616	34.052391
890	Art&#39s Coffee Shop	650 S Hill St, Los Angeles, CA 90014	(213) 489-2164	not found	-118.2539955	34.045895
891	Sunset Junction Coffee Shop	3916 W Sunset Blvd, Los Angeles, CA 90029	(323) 661-1600	http://www.sunsetjunctioncoffeeshop.com	-118.2800994	34.091921
892	Niles Cafe	1253 Vine St, Los Angeles, CA 90038	(323) 957-2767	not found	-118.3276732	34.0940036
893	Lette Macarons	107 Japanese Village Plaza Mall, Los Angeles, CA 90012	(213) 621-4457	http://www.lettemacarons.com	-118.2395682	34.0493321
894	Las Ranas Cafe	5472 Valley Blvd, Los Angeles, CA 90032	(323) 224-0435	not found	-118.1636744	34.0734658
895	Javista Organic Coffee Bar	6707 W Sunset Blvd, Los Angeles, CA 90028	(323) 464-6707	http://javistacafe.com	-118.3365432	34.0982216
896	Kc&#39s Cafe	8320 Lincoln Blvd, Los Angeles, CA 90045	(310) 348-9697	not found	-118.4209761	33.9622862
897	Unknown	4159 W Pico Blvd, Los Angeles, CA 90019	(323) 373-1550	not found	-118.3261344	34.0477891
898	323 Bakery Cafe	3070 Los Feliz Blvd., Los Angeles, CA 90039	(818) 390-4222	http://www.323bakerycafe.com	-118.2661176	34.1244598
899	Cuvee	2000 Avenue Of The Stars Ste 35, Los Angeles, CA 90067	(310) 277-3303	http://www.cuveechicago.com	-118.4148332	34.0583595
900	Cafe Theater	3600 Wilshire Blvd, Los Angeles, CA 90010	(213) 380-7300	not found	-118.3036388	34.0607067
901	Zosa Cafe	5526 Monterey Rd, Los Angeles, CA 90042	(323) 478-9259	not found	-118.1863848	34.1020042
902	Cafe 5230	5230 Pacific Concourse Dr, Los Angeles, CA 90045	(310) 643-8700	not found	-118.3732161	33.9282798
903	Il Caffe Inc.	855 S Broadway, Los Angeles, CA 90014	(213) 612-0331	not found	-118.2561081	34.0426364
904	Ruby&#39s Diner	201 World Way - Terminal 6, Los Angeles, CA 90045	(310) 646-2480	http://www.rubys.com	-118.4021501	33.9416068
905	Mary & Robb&#39s Restaurant	1453 Westwood Blvd, Los Angeles, CA 90024	(310) 478-3822	not found	-118.4412206	34.0542894
906	Blue Diamond	633 S Hill St, Los Angeles, CA 90014	(213) 622-1777	http://bluediamond.com	-118.2540903	34.0466761
907	Boba 7	518 W 7th St, Los Angeles, CA 90014	(213) 538-8022	http://labobatory.com	-118.2562615	34.0467024
908	Starbucks Coffee	727 Vine St, Los Angeles, CA 90038	(323) 461-4167	http://www.starbucks.com	-118.3270765	34.0844268
909	Anny&#39s	265 S Robertson Blvd Ste 1, Beverly Hills, CA 90211	(310) 854-4499	not found	-118.3837117	34.0630773
910	Nina&#39s Cafe	4348 Florence Ave, Cudahy, CA 90201	(323) 484-9803	not found	-118.189868	33.970019
911	Lacre Me Cafe	7376 Melrose Ave, Los Angeles, CA 90046	(323) 951-1007	http://www.lacremecafela.com	-118.3507782	34.0833863
912	Peet&#39s Coffee & Tea	701 W Cesar E Chavez Ave, Los Angeles, CA 90012	(213) 337-0172	http://www.peets.com	-118.2438934	34.0614447
913	Peet&#39s Coffee & Tea	1430 S Fairfax Ave Vons #2268 Grocery, Los Angeles, CA 90019	(323) 939-9335	http://www.peets.com	-118.3403506	34.0489277
914	Marmalade Cafe	6333 W 3rd St E-17, Los Angeles, CA 90036	(323) 954-0088	http://www.marmaladecafe.com	-118.3605725	34.0717892
915	Peet&#39s Coffee & Tea	5877 Franklin Ave Gelson&#39s #114 Grocery, Los Angeles, CA 90028	(323) 464-7316	http://www.peets.com	-118.325739	34.1012181
916	Rutt&#39s Hawaiian Cafe & Catering	12114 W Washington Blvd, Los Angeles, CA 90066	(310) 398-6326	http://www.ruttscafe.com	-118.4246813	33.9971722
917	Homeboy Bakery	130 Bruno St, Los Angeles, CA 90012	(213) 617-0365	http://www.homeboyindustries.org	-118.2356866	34.0623248
918	Yum-Yum Donuts	3501 Slauson Ave, Maywood, CA 90270	(323) 582-6523	http://www.yumyumdonuts.com	-118.2028005	33.9889176
919	It&#39s A Grind Coffy House	201 N Los Angeles St, Los Angeles, CA 90012	(213) 617-0400	http://www.itsagrind.com	-118.2419713	34.0525534
920	Via Cafe	451 Gin Ling Way, Los Angeles, CA 90012	(213) 617-1481	http://viacafechinatown.com	-118.2374885	34.0656212
921	Peet&#39s Coffee & Tea	330 N Atlantic Blvd Ralph&#39s #0715 Grocery, Monterey Park, CA 91754	(626) 289-0261	http://www.peets.com	-118.1415261	34.0472318
922	Winchell&#39s Donuts	1316 Vine St, Los Angeles, CA 90028	(323) 462-8617	http://www.winchells.com	-118.3263516	34.0948613
923	Longshot	625 N San Vicente Blvd, West Hollywood, CA 90069	(310) 734-7742	http://longshotcoffee.com	-118.3840044	34.082012
924	Starbucks Coffee	241 S Central Ave, Glendale, CA 91204	(818) 547-9687	http://www.starbucks.com	-118.2581136	34.1430177
925	Silverlake Coffee Co	2388 Glendale Blvd, Los Angeles, CA 90039	(323) 913-0388	not found	-118.2589731	34.0998871
926	Casa De Dulce	317 S Broadway # D4, Los Angeles, CA 90013	(213) 687-7367	not found	-118.2487951	34.050655
927	Coffee Station	800 N Vermont Ave, Los Angeles, CA 90029	(323) 661-8090	not found	-118.2913798	34.0858052
928	Le Pain Quotidien	523 W 6th St, Los Angeles, CA 90014	(213) 488-1781	http://www.lepainquotidien.us	-118.2547171	34.0486546
929	Starbucks Coffee	12057 Wilshire Blvd, Los Angeles, CA 90025	(310) 477-8746	http://www.starbucks.com	-118.4669049	34.0448528
930	Lamill Coffee Inc	112 Westminster Ave, Alhambra, CA 91803	(626) 202-0323	not found	-118.155744	34.0836054
931	Green Tea Terrace	1037 Westwood Blvd, Los Angeles, CA 90024	(310) 443-9910	not found	-118.4453273	34.061918
932	The Coffee Bean & Tea Leaf	909 N Sepulveda Blvd , Suite 135, Los Angeles, CA 90049	(310) 535-5596	http://coffeebean.com	-118.4724716	34.0806485
933	Toastation	2707 1/2 W 8th St, Los Angeles, CA 90005	(213) 388-2321	not found	-118.2847398	34.0579645
934	House Of Pies	1869 N Vermont Ave, Los Angeles, CA 90027	(323) 666-9961	not found	-118.2921079	34.10511
935	Starbucks Coffee	8595 Santa Monica Blvd, West Hollywood, CA 90069	(310) 659-1856	http://www.starbucks.com	-118.3790521	34.0882784
936	Peet&#39s Coffee & Tea	2626 Colorado Blvd Target #1408 Grocery, Los Angeles, CA 90041	(323) 258-1355	http://www.peets.com	-118.2117257	34.1322469
937	Home Restaurant	1760 Hillhurst Ave, Los Angeles, CA 90027	(323) 669-0211	http://www.homelosfeliz.com	-118.2871728	34.103085
938	Berri&#39s Pizza Cafe	8412 W 3rd St, Los Angeles, CA 90048	(323) 852-0642	http://berriscafeonthird.com	-118.373812	34.0728334
939	Peet&#39s Coffee & Tea	735 S Figueroa St Target #2776 Grocery, Los Angeles, CA 90017	(213) 330-4543	http://www.peets.com	-118.2672801	34.0543797
940	Cafe Todo Dia	3003 W Olympic Blvd, Los Angeles, CA 90006	(213) 739-0112	not found	-118.3006189	34.0529507
941	Starbucks Coffee	8000 W Sunset Blvd # B110, Los Angeles, CA 90046	(323) 656-1812	http://www.starbucks.com	-118.3652003	34.0974962
942	C M at Westwood Gateway	11111 Santa Monica Blvd, Los Angeles, CA 90025	(310) 477-4701	not found	-118.4450073	34.0479682
943	Don Francisco Gourmet Coffee	2700 Fruitland Ave, Vernon, CA 90058	(323) 582-0671	not found	-118.2230447	33.9959342
944	The Nickel	524 S Main St, Los Angeles, CA 90013	(213) 623-8301	not found	-118.2487994	34.0459093
945	Coffee Plus Food	5630 Melrose Ave, Los Angeles, CA 90038	(323) 962-3390	http://www.coffeeplusfood.com	-118.32333	34.083276
946	Yum-Yum Donuts	3642 Crenshaw Blvd, Los Angeles, CA 90016	(323) 298-9749	http://www.yumyumdonuts.com	-118.3348254	34.0219285
947	Las Ranas Cafe Restaurant Numero Dos	5237 W Adams Blvd, Los Angeles, CA 90016	(323) 934-7084	http://www.lasranascafela.com	-118.3564225	34.0327689
948	Blue Bottle Coffee Inc	582 Mateo St, Los Angeles, CA 90013	(213) 621-4194	http://bluebottlecoffee.com	-118.2325303	34.0390875
949	Le Pain Quotidien	320 S Robertson Blvd, Los Angeles, CA 90048	(310) 858-7270	http://www.lepainquotidien.us	-118.3834637	34.0729318
950	Starbucks Coffee	6933 Hollywood Blvd, Los Angeles, CA 90028	(323) 462-1602	http://www.starbucks.com	-118.3415313	34.1018332
951	Peet&#39s Coffee & Tea	8824 Sepulveda Westway, Los Angeles, CA 90045	(310) 645-2035	http://www.peets.com	-118.398184	33.9568828
952	Starbucks Coffee	1161 Westwood Blvd, Los Angeles, CA 90024	(310) 208-5505	http://www.starbucks.com	-118.4447756	34.0593394
953	Kaldi Coffee & Tea	1019 El Centro St, South Pasadena, CA 91030	(626) 403-5951	http://kaldicoffeeandtea.com	-118.1563946	34.1145811
954	Starbucks Coffee	4430 York Blvd, Los Angeles, CA 90041	(323) 340-8059	http://www.starbucks.com	-118.2195864	34.1236317
955	Peet&#39s Coffee & Tea	3901 Crenshaw Blvd Albertsons #6131 Grocery, Los Angeles, CA 90008	(323) 295-1919	http://www.peets.com	-118.3491169	34.0083231
956	City Cafe	425 E Colorado St # 130, Glendale, CA 91205	(818) 247-7996	http://www.citycafescranton.com	-118.2504202	34.1431363
957	Starbucks Coffee	7121 Atlantic Ave, Cudahy, CA 90201	(323) 560-4458	http://www.starbucks.com	-118.1884416	33.9705879
958	Studio Cafe	3575 Cahuenga Blvd W Ste 460, Los Angeles, CA 90068	(323) 876-9240	not found	-118.358351	34.133748
959	Kassava Cafe	8608 W 3rd St, Los Angeles, CA 90048	(310) 385-9298	not found	-118.3800334	34.0733931
960	Starbucks Coffee	7100 Santa Monica Blvd Suite 201, West Hollywood, CA 90046	(323) 874-2135	http://www.starbucks.com	-118.3447075	34.0902545
961	Silverback Coffee of Rwanda	3221 S Hill St, Los Angeles, CA 90007	(213) 765-8100	http://www.silverbackcoffeeofrwanda.com	-118.2744214	34.0207528
962	Starbucks Coffee	9824 National Blvd, Los Angeles, CA 90034	(310) 839-1483	http://www.starbucks.com	-118.4008342	34.0311025
963	Seven Star Coffee	650 S Hill St Ste S1, Los Angeles, CA 90014	(213) 622-8475	not found	-118.2539955	34.045895
964	Starbucks Coffee	2556 Glendale Blvd, Los Angeles, CA 90039	(323) 913-3506	http://www.starbucks.com	-118.2591637	34.1044574
965	Dunkin&#39 Donuts	100 World Way, Los Angeles, CA 90045	(310) 698-9358	http://www.dunkindonuts.com	-118.4005654	33.9449481
966	Dlush	6801 Hollywood Blvd # 253, Los Angeles, CA 90028	(323) 467-2811	http://www.dlush.com	-118.3399805	34.1026077
967	Ccl	755 S Hobart Blvd, Los Angeles, CA 90005	(213) 389-6138	not found	-118.305708	34.05807
968	Aroma Bakery Cafe	7373 W Sunset Blvd, Los Angeles, CA 90046	(323) 850-8120	http://www.aromabakery.com	-118.3507825	34.0982518
969	Lab Coffee	429 N Western Ave, Los Angeles, CA 90004	(323) 465-6788	http://labcoffee.com	-118.3096917	34.0789308
970	Starbucks Coffee	1850 W Slauson Ave, Los Angeles, CA 90047	(323) 292-4429	http://www.starbucks.com	-118.3110814	33.988873
971	Starbucks Coffee	6021 Pacific Blvd, Huntington Park, CA 90255	(323) 584-0492	http://www.starbucks.com	-118.2260063	33.9868383
972	Seven Star Coffee 2	701 S Broadway, Los Angeles, CA 90014	(213) 688-7362	not found	-118.2536539	34.0451866
973	Yum-Yum Donuts	12201 Venice Blvd, Los Angeles, CA 90066	(310) 397-9391	http://www.yumyumdonuts.com	-118.4316164	34.0051083
974	Sangak Cafe	8702 W Pico Blvd, Los Angeles, CA 90035	(310) 657-8272	not found	-118.3818845	34.0542364
975	Rise N Grind	6501 Hollywood Blvd, Los Angeles, CA 90028	(323) 464-4100	not found	-118.331205	34.101895
976	Orchid Restaurant and Cafe	3900 W 6th St, Los Angeles, CA 90020	(213) 251-8886	http://www.orchidlosangeles.com/index_s.php	-118.308078	34.063253
977	Suehiro Cafe Inc	337 E 1st St, Los Angeles, CA 90012	(213) 626-9132	http://suehirocafe.menutoeat.com	-118.2397619	34.0498855
978	Apffel Edw Coffee Co	1900 E 25th St, Los Angeles, CA 90058	(213) 747-7361	http://www.apffels.com	-118.2370274	34.0144067
979	Daily Coffee and Donuts	5117 S Figueroa St Apt S, Los Angeles, CA 90037	(323) 846-8955	not found	-118.2827043	33.9963621
980	The Coffee Bean & Tea Leaf	1845 S La Cienega Blvd, Los Angeles, CA 90035	(310) 815-1255	http://coffeebean.com	-118.3768206	34.0428464
981	Starbucks Coffee	4700 W Pico Blvd, Los Angeles, CA 90019	(323) 936-5032	http://www.starbucks.com	-118.3377602	34.0482914
982	La Peer Coffee Shop	8920 Wilshire Blvd # 620, Beverly Hills, CA 90211	(310) 652-5004	http://lapeerpediatrics.com	-118.3865184	34.0665626
983	Starbucks Coffee	5453 Hollywood Blvd, Los Angeles, CA 90027	(323) 462-5506	http://www.starbucks.com	-118.3090115	34.1020057
984	Winchell&#39s Donuts	1700 S Western Ave, Los Angeles, CA 90006	(323) 731-9725	http://www.winchells.com	-118.3087168	34.0425174
985	City Spa Cafe	5325 W Pico Blvd, Los Angeles, CA 90019	(323) 692-9233	http://kwazarmultimedia.com/cityspa/bullshit.htm	-118.354462	34.048639
986	Infusion Cafe	808 S Spring St, Los Angeles, CA 90014	(213) 327-2255	not found	-118.2537384	34.0427001
987	Golden Wheat Bakery	7300 W Sunset Blvd Ste H, Los Angeles, CA 90046	(323) 876-3932	http://www.goldenwheatbakery.com	-118.3499347	34.0976232
988	Park Central Building	412 W 6th St Ste 1314, Los Angeles, CA 90014	(213) 627-3996	http://parkcentralbuilding.com	-118.2537569	34.0475484
989	Stumptown Coffee	806 S Santa Fe Ave, Los Angeles, CA 90021	(213) 337-0950	http://www.stumptowncoffee.com	-118.2298756	34.0332568
990	Cafe Deluxe	6040 Bandini Blvd, Commerce, CA 90040	(213) 293-7101	not found	-118.1526589	33.9898659
991	Dolcini Caffe Espresso	611 Wilshire Blvd, Los Angeles, CA 90017	(213) 624-4007	http://www.camminga.com	-118.2561845	34.0483197
992	Coffee Tree USA Inc	1513 S Victoria Ave, Los Angeles, CA 90019	(213) 272-7502	not found	-118.329681	34.0456379
993	Starbucks Coffee	6102 W Sunset Blvd, Los Angeles, CA 90028	(323) 467-6404	http://www.starbucks.com	-118.3224689	34.097303
994	Starbucks Coffee	603 S Spring St, Los Angeles, CA 90014	(213) 623-2751	http://www.starbucks.com	-118.2513106	34.0458891
995	Lingle Bros Coffee	6500 Garfield Ave, Bell Gardens, CA 90201	(562) 927-3317	not found	-118.1471472	33.9724557
996	Kelly&#39s Coffee & Fudge Factory	6801 Hollywood Blvd, Los Angeles, CA 90028	(323) 464-6110	http://kellyscoffee.com	-118.3399805	34.1026077
997	Peet&#39s Coffee & Tea	1745 Garfield Ave, South Pasadena, CA 91030	(626) 403-0082	http://www.peets.com	-118.135431	34.1051886
998	Trimana	550 S Hill St, Los Angeles, CA 90013	(213) 627-1960	http://trimana.com	-118.2524604	34.0475472
999	Iota Brew Cafe	528 S Western Ave, Los Angeles, CA 90020	(213) 568-3700	http://iotabrewcafe.com	-118.3088701	34.0644791
1000	Cafe Los Feliz	2118 Hillhurst Ave, Los Angeles, CA 90027	(323) 664-7111	not found	-118.2872014	34.1105409
1001	Cafe Brentwood	148 S Barrington Ave, Los Angeles, CA 90049	(310) 476-3511	http://www.foodcowest.com	-118.4694524	34.0647183
1002	Starbucks Coffee	8783 W Pico Blvd, Los Angeles, CA 90035	(310) 860-9364	http://www.starbucks.com	-118.3835182	34.0549379
1003	Art&#39s Coffee Shop	1917 Zonal Ave, Los Angeles, CA 90033	(323) 227-9850	not found	-118.2077333	34.0608726
1004	Laurent&#39s Le Coffee Shop	12457 W Washington Blvd, Los Angeles, CA 90066	(310) 390-9313	not found	-118.4298999	33.9969382
1005	Starbucks Coffee	800 W Olympic Blvd, Los Angeles, CA 90015	(213) 748-1009	http://www.starbucks.com	-118.2653836	34.0448196
1006	Nespresso Usa	10250 Santa Monica Blvd, Los Angeles, CA 90067	(310) 556-7904	http://towerpizza.com	-118.4194176	34.0596101
1007	Lemon Moon	12200 W Olympic Blvd Ste 110, Los Angeles, CA 90064	(310) 442-9191	http://www.lemonmoon.com	-118.4557512	34.0316894
1008	Cafe Americano On Melrose	5770 Melrose Ave # 101, Los Angeles, CA 90038	(323) 464-5727	not found	-118.3256279	34.0831867
1009	Starbucks Coffee	401 W 5th St, Los Angeles, CA 90013	(213) 393-5383	http://www.starbucks.com	-118.2518496	34.0493363
1010	The Coffee Table Eagle Rock	1958 Colorado Blvd, Los Angeles, CA 90041	(323) 255-2200	http://www.coffeetablebistro.com	-118.2104686	34.138936
1011	Rockpaper Coffee	7509 W Sunset Blvd, Los Angeles, CA 90046	(323) 378-5805	http://www.rockpapercoffeela.com	-118.353263	34.0982854
1012	New Donut	1260 S Soto St, Los Angeles, CA 90023	(323) 268-8884	not found	-118.219174	34.0267697
1013	Peet&#39s Coffee & Tea	6571 W 80th St Vons #4021 Grocery, Los Angeles, CA 90045	(310) 641-9423	http://www.peets.com	-118.3875775	33.9516114
1014	Holly&#39s Coffee	3450 W 6th St Ste 111, Los Angeles, CA 90020	(213) 388-2114	not found	-118.2966711	34.0635651
1015	Winchell&#39s Donuts	3501 Slauson Ave, Maywood, CA 90270	(323) 582-6523	http://www.winchells.com	-118.2028005	33.9889176
1016	Maui Wowi Hawaiian Coffees Smoothies	5160 Wadena St, Los Angeles, CA 90032	(323) 343-9837	not found	-118.168648	34.092521
1017	Starbucks Coffee	3461 W 3rd St, Los Angeles, CA 90020	(213) 384-6552	http://www.starbucks.com	-118.2907969	34.0700059
1018	Edna&#39s Coffee & Grocery	420 S Glendale Ave Ste 7, Glendale, CA 91205	(818) 243-3565	not found	-118.2494609	34.141199
1019	Cafe Aroma	1015 Crocker St, Los Angeles, CA 90021	(213) 747-0003	http://www.cafearomala.com	-118.2513018	34.0340267
1020	Eurotal	380 World Way, Los Angeles, CA 90045	(310) 645-6125	not found	-118.4092011	33.9431128
1021	Blue Bottle Coffee - Echo Park	1712 W Sunset Blvd, Los Angeles, CA 90026	(213) 621-4194	https://bluebottlecoffee.com	-118.2589463	34.0773021
1022	El Torito Cafe	1462 Griffith Ave, Los Angeles, CA 90021	(213) 749-8084	not found	-118.2508739	34.0287286
1023	The LA Brew Techs	1048 San Julian Street, Los Angeles, CA 90015	(323) 229-0022	http://thelabrewtechs.com	-118.2527484	34.0363351
1024	Cyber Java At Hollywood	7080 Hollywood Blvd, Los Angeles, CA 90028	(323) 466-5600	http://www.cyberjava.com	-118.3444103	34.1010728
1025	Peet&#39s Coffee & Tea	2725 Hyperion Ave Gelson&#39s #22 Grocery, Los Angeles, CA 90027	(323) 660-0387	http://www.peets.com	-118.2935891	34.1220545
1026	Vanessa&#39s	695 E Green St, Pasadena, CA 91101	(626) 796-8256	http://www.vanessascoffee.com	-118.1364106	34.1445529
1027	I Love Boba	534 S Western Ave, Los Angeles, CA 90020	(213) 384-5030	not found	-118.3091021	34.0643545
1028	Panera Bread	8647 S Sepulveda Blvd, Los Angeles, CA 90045	(310) 641-9200	https://www.panerabread.com/en-us/home.html?utm_source=yext&utm_medium=referral&utm_campaign=yext	-118.3966364	33.9586673
1029	Cafe Mak	612 Shatto Pl, Los Angeles, CA 90005	(213) 252-9898	http://www.yelp.com/biz/cafe-mak-los-ang...	-118.28943	34.063172
1030	Peet&#39s Coffee & Tea	311 W Los Feliz Rd Vons #2254 Grocery, Glendale, CA 91204	(818) 246-7161	http://www.peets.com	-118.2614332	34.1377656
1031	Cafe Seoul Nanearang	3815 W 6th St, Los Angeles, CA 90020	(213) 388-8513	http://www.nandarangla.com	-118.3059072	34.0639051
1032	Peet&#39s Coffee & Tea	2400 W Commonwealth Ave, Alhambra, CA 91803	(626) 293-7100	http://www.peets.com	-118.1498238	34.0865228
1033	Yum-Yum Donuts	5921 Atlantic Blvd, Maywood, CA 90270	(323) 562-1986	http://www.yumyumdonuts.com	-118.186046	33.9865042
1034	Starbucks Coffee	5353 Wilshire Blvd, Los Angeles, CA 90036	(323) 939-2071	http://www.starbucks.com	-118.345317	34.062464
1035	World Of Nuts & Coffee	5022 Melrose Ave, Los Angeles, CA 90038	(323) 464-4555	not found	-118.3100158	34.0833527
1036	City Bean	700 S Flower St #300, Los Angeles, CA 90017	(213) 622-1101	http://www.citybean.com	-118.258582	34.0480519
1037	Park Central Coffee Shop	606 S Olive St, Los Angeles, CA 90014	(213) 683-0770	not found	-118.254126	34.0476812
1038	Mr Boba	3525 W 3rd St, Los Angeles, CA 90020	(213) 387-8070	not found	-118.2925028	34.0693318
1039	LaMill Coffee	700 World Way, Los Angeles, CA 90045	not found	not found	-118.4013612	33.9430214
1040	Barista Society Coffee Boutique	633 W 5th St, Los Angeles, CA 90071	(213) 444-3389	http://www.baristasociety.com	-118.2543221	34.0511203
1041	Bellissimo Cafe	2501 Colorado Blvd, Los Angeles, CA 90041	(323) 255-2233	http://www.bellissimocafe.com	-118.2211942	34.141796
1042	The Coffee Bean & Tea Leaf	574 Hilgard Ave, Los Angeles, CA 90024	(310) 909-5555	http://coffeebean.com	-118.438365	34.070214
1043	Ed&#39s Coffee Shop	460 N Robertson Blvd, West Hollywood, CA 90048	(310) 659-8625	not found	-118.384571	34.0797147
1044	Coffee Corner	6333 W 3rd St # 542, Los Angeles, CA 90036	(323) 938-0278	http://www.coffeecornerla.com	-118.3605725	34.0717892
1045	The Coffee Bean & Tea Leaf	10897 W Pico Blvd, Los Angeles, CA 90064	(310) 441-1705	http://coffeebean.com	-118.4295493	34.0399057
1046	Cafe Oaxaca	1211 E Century Blvd, Los Angeles, CA 90002	(323) 249-0292	http://oaxaca-cafe.com	-118.2532458	33.9456685
1047	Don Williams Catering Service	2238 S Figueroa St, Los Angeles, CA 90007	(213) 746-2604	not found	-118.2741404	34.0311193
1048	Starbucks Coffee	3584 S Figueroa St, Los Angeles, CA 90007	(213) 749-9302	http://www.starbucks.com	-118.2815048	34.0187437
1049	Courtyard Cafe	8939 S Sepulveda Blvd Ste 107, Los Angeles, CA 90045	(310) 410-0770	http://www.courtyardcafesa.com	-118.3968049	33.9548419
1050	Lady Effie&#39s Tea Parlor	453 E Adams Blvd, Los Angeles, CA 90011	(213) 749-2204	http://ladyeffiesteaparlor.com	-118.2636544	34.0229216
1051	Starbucks Coffee	5545 W Sunset Blvd, Los Angeles, CA 90028	(323) 962-4525	http://www.starbucks.com	-118.3110768	34.0983244
1052	Nature&#39s Harvest Market	5636 Hollywood Blvd, Los Angeles, CA 90028	(323) 465-6885	https://naturesharvestmarkethollywood.com	-118.3128086	34.1014834
1053	The Coffee Bean & Tea Leaf	11913 W Olympic Blvd, Los Angeles, CA 90064	(310) 914-9564	http://coffeebean.com	-118.451284	34.0328356
1054	Mocha Java Express	623 S Olive St, Los Angeles, CA 90014	(213) 622-7431	not found	-118.254577	34.0476555
1055	Nue Studio	5156 Melrose Ave, Los Angeles, CA 90038	(323) 366-2969	http://nuestudio.com/losangeles	-118.3128873	34.0833375
1056	Antojitos Bibi	2400 W 7th St # 109, Los Angeles, CA 90057	(213) 383-8595	not found	-118.2803144	34.0577596
1057	Yigaju Cafe	600 S New Hampshire Ave, Los Angeles, CA 90005	(213) 385-0521	not found	-118.292566	34.06344
1058	Nonna&#39s Empanadas	8570 W 3rd St, Los Angeles, CA 90048	(310) 385-0445	http://www.nonnasempanadas.com	-118.3792325	34.0734078
1059	Starbucks Coffee	6066 W Olympic Blvd, Los Angeles, CA 90036	(323) 634-7845	http://www.starbucks.com	-118.3635257	34.0581223
1060	Bon Appetit	1801 Century Park E, Los Angeles, CA 90067	(310) 277-7009	http://www.bonappetit.com	-118.4158259	34.0621553
1061	Arda&#39s Cafe	418 W 6th St, Los Angeles, CA 90014	(213) 689-4438	http://www.ardascafe.com	-118.2538714	34.0475711
1062	The Highland Cafe	5810 York Blvd, Los Angeles, CA 90042	(323) 259-1000	not found	-118.1918661	34.1183188
1063	Starbucks Coffee	1999 Avenue Of The Stars, Los Angeles, CA 90067	(310) 557-0785	http://www.starbucks.com	-118.416567	34.058739
1064	Caffe Latte	6254 Wilshire Blvd, Los Angeles, CA 90048	(323) 936-5213	not found	-118.3648348	34.0633355
1065	Zia Valentina	1010 S Robertson Blvd, Los Angeles, CA 90035	(310) 659-9090	not found	-118.383295	34.058926
1066	Marco&#39s Trattoria	8200 Santa Monica Blvd, West Hollywood, CA 90046	(323) 650-1060	http://www.marcoswesthollywood.com	-118.3671681	34.0905601
